record_manager,company,phone,address1,city,state,zipcode,website,industry,company_email
Deanna Sigel,Parris Blue Photography,,13714 103rd Ave NE,Arlington,WA,98223,www.parrisblue.com,,
Amp Harrell,Pawprint Promotions,,,,,,,,
Stitch Mitchell,Paws with Cause,,,,WA,,pawswithcause.org,,
Stitch Mitchell,PCS Everett Real Estate,,2809 Colby Avenue,Everett,WA,98201,pcseverett.com,,
Deanna Sigel,Peoples Bank - Corporate,(800) 584-8859,3100 Woburn St,Bellingham,WA,98226,www.peoplesbank-wa.com,,
Chuck Maylin,Petite Sweet Bakery & Cafe,(425) 258-1800,2613 Colby Av,Everett,WA,98201,www.petitesweetbakery.com,,info@petitesweetbakery.com
Maury Eskenazi,Pharm A Save Medical Supply,(360) 794-7351,17788 147th St. S.E.,Monroe,WA,,www.pharmasavemonroe.com,Healthcare/Medical,info@pasmonroe.com
Deanna Sigel,Phillips Law Firm,(888) 984-2033,17410 133rd Ave NE #301,Woodinville,WA,98072,https://www.justiceforyou.com/attorneys/,Attorney / Legal,httglenn@justiceforyou.com
Amp Harrell,Pilchuck Rentals,,9114 State Avenue,Marysville,WA,98270,http://pilchuckrents.com/,,
Amp Harrell,Pillars Group,,,,WA,,https://www.pillarsgrp.com/,,
Chuck Maylin,Plantworks,,,,,,https://www.plantworksnw.com/,,
Chuck Maylin,Plasma Lab International,(425) 258-3653,3128 Norton Avenue,Everett,WA,98201,www.plasmalab.com,Healthcare / Medical,info@plasmalab.com
Chuck Maylin,Platinum CRM Consulting,,,,WA,,,,
House,PLC Insurance,,4211 Alderwood Mall Blvd,Lynnwood,WA,98036,http://www.plcins.com/,,
House,Poe Advertising,,"8996 Miramar Road, Suite 310",San Diego,California,92126,poeadv.com,,
House,"Point Bar and Grill, The",,3528 168th St NE,Arlington,WA,98223,https://www.pointbarandgrill.net/,,
House,Polygon Homes,,11624 SE 5th St. Suite 200,Bellevue,WA,98005,polygonhomes.com,,
Chuck Maylin,Port Gardner Bay Winery,(425) 339-0293,3006 Rucker Ave,Everett,WA,98201,https://portgardnerbaywinery.com/,,wine@portgardnerbaywinery.com
Stitch Mitchell,Port of Edmonds,,336 Admiral Way,Edmonds,WA,98020,portofedmonds.org,,
Deanna Sigel,Port of Everett,,1205 Craftsmen Way,Everett,WA,98201,http://www.portofeverett.com/,,
Stitch Mitchell,Portofino Restaurant and Bar,,1306 Olympic View Drive,Edmonds,WA,WA 98020,portofinopizza.com,,
Chuck Maylin,Post Media Team,,"2707 Colby Avenue, Suite 1380",Everett,WA,98201,www.everettpost.com,Communication,
House,Pratt Plastic Surgery,(425) 258-3446,4005 Colby Avenue,Everett,WA,98201,https://prattplasticsurgery.com,,contact@prattplasticsurgery.com
Chuck Maylin,PRC Cannabis,,5200 172nd St NE,Mt Vernon,WA,98273,http://prcconway.com,,
Maury Eskenazi,PRCBD,,5200 172nd St NE suite f-103,,WA,,prcbd.com,,
Amp Harrell,Precision Turf Equipment,,7525 Lowell Snohomish River Rd,Snohomish,WA,98296,http://www.precision-turf.com/service,,
House,Pregnancy Resource Center of Snohomish County,(425) 339-2175,4310 Hoyt Ave,Everett,WA,98203,http://www.realchoices.com/,,
House,Pregnancy Resource Center of Snohomish County,(425) 339-2175,4310 Hoyt Ave,Everett,WA,98203,http://www.realchoices.com/,,
Chuck Maylin,Premier Polaris,(360) 794-8669,122 Charles St,Monore,WA,98272,www.premierpolaris.com,,
House,Pro Aerial League,(208) 790-4921,5818 NE 1st Street,Renton,WA,98059,proaerialleague.com,,
Chuck Maylin,Procura Mortgage,,2924 Colby Ave,Everett,WA,98201,www.procuramortgage.com,,info@procuramortgage.com
Maury Eskenazi,Procura Mortgage Company,(425) 257-4441,2924 Colby Ave,Everett,WA,98201,www.procuramortgage.com,Financial/Insurance,
Maury Eskenazi,Production Sports,,21810 76th Avenue W.,Edmonds,WA,98026,www.productionsport.net,,
House,Proliance Surgeons Corporate,(206) 264-8100,805 Madison St,Seattle,WA,98104,https://www.proliancesurgeons.com/,,reception@proliancesurgeons.com
Stitch Mitchell,Propeller Airports Paine Field LLC,,"9724 32nd Place West, 2nd Floor",Everett,WA,98204,propellerairports.com,,
Amp Harrell,ProStar Insurance,(425) 529-5128,10308 NE 183rd ST,Bothell,WA,98011,https://www.prostarinsurance.com/,Financial / Insurance,
Chuck Maylin,Providence Hospice and Home Care Foundation / Snohomish County,,2731 Wetmore,Everett,WA,98201,www.providence.org/phhc,,
Deanna Sigel,PSNW Commisary Kitchen,,10219 269th St NW,,WA,98292,,,
House,Puff N Chill,(425) 412-3705,15919 HWY 99,Lynnwood,WA,98087,puffnchill.com,,info@puffnchill.com
Stitch Mitchell,Puget Sound Express,,227 Jackson Street,Port Townsend,WA,98368,pugetsoundexpress.com,,
Amp Harrell,Puget Sound Investment Solutions,,601 State Ave,Marysville,WA,98270,http://pugetsoundinvestmentsolutions.com,,
House,Puget Sound Marijuana,(425) 678-8106,14806 hwy 99 ste 304,Lynnwood,WA,,pugetsoundmarijuana.com,,pugetsoundmarijuana@gmail.com
Chuck Maylin,Purcell Tires,(888) 787-2355,301 N. Hall Street,Potosi,MO,63664,www.purcelltire.com,Automotive/Aerospace,
Deanna Sigel,Pure Smoke BBQ NW,,10219 269th Pl NW,Stanwood,WA,98292,puresmokenw.com,,
Amp Harrell,PureClean Carpet Cleaning,,19726 144th Ave NE,Woodinville,WA,98072,,,
House,Purple Haze,,4218 Rucker Ave,Everett,WA,98201,http://www.purplehazellc.com/index.php,,
House,QFC - Quality Food Centers,,,,WA,,http://www.thekrogerco.com/contact-us,,
Amp Harrell,Quality Countertops,(425) 303-9180,3411 Hayes St,Everett,WA,98201,https://qualitycounterseverett.com/,Services / Consulting,sales@qualitycounter.com
House,Quality Fitness,(206) 478-4147,"8221, suite e, 44th Ave W",Mukilteo,WA,98275,http://www.qualityfitnessmukilteo.com/,,
Stitch Mitchell,Quil Ceda Creek Nightclub & Casino,,6410 33rd Avenue,Tulalip,WA,98271,http://www.quilcedacreekcasino.com,,
House,Quil Ceda Happy Dental,,8825 34th AVE NE Suite M,Tulalip,WA,98271,www.marysvilledentists.com,,
Amp Harrell,Quil Ceda Village.,(360) 716-5000,,Quil Ceda,WA,98271,www.quilcedavillage.com,,
House,Quinault Beach Resort Casino,(888) 461-2214,P.O. Box 2107,Ocean Shores,WA,98569,http://www.quinaultbeachresort.com/events/,,info@quinaultbeachresort.com
Deanna Sigel,R & L Window Replacements,(425) 210-5588,"8531 Vistarama Ave., Suite A",Everett,WA,98028,https://www.rnlwindows.com/,,
Chuck Maylin,R & R Foundation Specialist,(425) 760-5077,3409 McDougall Avenue,Everett,WA,98201,www.rrfoundationspecialist.com,Construction,
Chuck Maylin,Radio Music License Committee,(615) 844-6260,1616 Westgate Circle,Brentwood,TN,37027,www.radiomlc.org,Radio Industry,info@radiomlc.org
Deanna Sigel,Rainy Day Basement Systems,(360) 727-8097,18931 59th Ave NE,Arlington,WA,98223,http://www.rainydaybasementsystems.com/,,
Maury Eskenazi,Rairdon's Dodge Chrysler Jeep Ram Monroe,,16413 West Main Street,Monroe,WA,98272,http://www.dodgechryslerjeepofmonroe.com/staff.aspx,,
Maury Eskenazi,Rairdon's Dodge Chrysler Jeep Ram Smokey Pt,(855) 991-1763,16610 Smokey Point Blvd,Arlington,WA,98223,dodgechryslerjeepofmarysville.com,,info@dodgechryslerjeepofmarysville.com
Maury Eskenazi,Rairdons Honda Of Marysville,,15714 Smokey Pt. Blvd,Marysville,WA,98271,http://www.hondaofmarysville.com/,,hofmsales@rairdon.com
Amp Harrell,Ram Restaurant and Brewery,,10520 Quil Ceda Blvd,Tulalip,WA,98271,www.theram.com,,
Amp Harrell,Randy's Ring & Pinion d.b.a. Randy's Worldwide,,"10411 Airport Road",Everett,WA,98204,www.randysworldwide.com,,
Amp Harrell,Razzals Sports Bar & Grill,(425) 290-6224,"1114 Evergren Way ",Everett,WA,98204,,Restaurant,
Amp Harrell,RE/MAX Elite,,2917 Pacific Ave,Everett,WA,,http://www.elitespeedwayhomes.com/home.html,,
Deanna Sigel,Red Cork Bistro,,"11700 Mukilteo Speedway #405,",Mukilteo,WA,98275,redcorkbistro.com,Restaurant,
Stitch Mitchell,Reece Construction Company,,"1607 114th St NE",Tulalip,WA,98271,http://reececonstructioncompany.com,,
Chuck Maylin,Reed Rouleau Marketing & Media,,"6830 NE Bothell Way, Suite C",Kenmore,WA,98028,www.reedrouleau.com,,
Amp Harrell,ReMax Northwest,,"15435 Main Street",Duvall,WA,98019,joeyduwehomes.com,,
House,Repipe Specialists,(206) 900-9080,100 W. Andover Park West,Tukwila,WA,98188,https://repipewashington.com/,Construction,info@1-800-repiping.com
Amp Harrell,Revolve Food & Wine,,,Bothell,WA,,,Restaurant,
Maury Eskenazi,Rhodes River Ranch,(360) 474-8313,22016 Entsminger Road,Arlington,WA,98223,therestaurantatrhodesriverranch.com,,info@therestaurantatrhodesriverranch.com
Deanna Sigel,Rhododendrons Direct,,432 Calapooia St. SW,Albany,OR,97321,rhododentronsdirect.com,,
Chuck Maylin,Rick Merrill Attorney,(425) 259-4972,3625 Colby Ave.,Everett,WA,98201,www.rickmerrillattorney.com,,info@rickmerrillattorney.com
Amp Harrell,Riverside Roofing,,"10420 E Riverside Dr",Bothell,WA,98011,https://www.riversideroofingllc.com/,,
Deanna Sigel,Robbins and Co,,,,WA,,https://www.robbinsandco.com/,,
House,Rock It Boy Entertainment,(604) 720-2256,15154 Roper Ave #102,White Rock,BC,V4B2E7,https://www.rockitboy.com/,,
Stitch Mitchell,Rodland Toyota,,6816 Evergreen Way,Everett,WA,98203,www.rodlandtoyota.com,,
Amp Harrell,ROIC Retail Opportunity Investments Corp,,,,,,,Real Estate,
Stitch Mitchell,Roof Maxx,,1333 134th Drive SE.,Snohomish,WA,98290,roofmaxx.com,,
Amp Harrell,RoofWorks Northwest,(206) 718-4931,12910 16th St NE,Lake Stevens,WA,98258,http://www.roofworksnorthwest.com/,Construction,
Amp Harrell,Room to Craft,,18215 BOTHELL WAY NE,Bothell,WA,98011,roomtocraft.com,,
House,Roy Robinson Chevrolet Subaru,,"6616 35th Ave NE",Marysville,WA,98271,,,
House,Roy Robinson RVd,,6616 35th Ave NE,Marysville,WA,98271,,,
House,Roy Robinson Subaru,(360) 659-6237,6001 33rd Av NE,Marysville,WA,98271,,,
Amp Harrell,Rugs Galore,(800) 275-7020,116 Ave D,Snohomish,WA,98290,rugsgalore.com,Retail / Consumer Goods,
Deanna Sigel,Rushmore Tax,,"1094 State Ave,",Marysville,WA,98270,http://www.rushmoretax.com/,,
Maury Eskenazi,RV Country,,509A Suzanne Lane,Mount Vernon,WA,,http://www.rvcountry.com/,,
House,Ryder,(360) 651-2364,3919 88th st n.e.,Marysville,WA,98270,https://ryder.com/,,info@ryder.com
Amp Harrell,S & S Roofing,,104 S. West Ave,Arlington,WA,98223,http://www.sandsroofingllc.com/,Construction,
Stitch Mitchell,Salish Sea Brewing Company,,"518 Dayton Street, Suite 104",Edmonds,WA,98020,salishbrewing.com,,
Stitch Mitchell,Salish Sea Brewing Company,,"518 Dayton Street, Suite 104",Edmonds,WA,98020,salishbrewing.com,,
Stitch Mitchell,Salish Sea Brewing Company,,"518 Dayton Street, Suite 104",Edmonds,WA,98020,salishbrewing.com,,
Maury Eskenazi,Sams Cats and Dogs,(360) 805-5060,20016 Old Owen Road,Monroe,WA,98272,http://www.samscatsanddogs.com/,,
Chuck Maylin,Sand Bags To Go,(866) 550-2247,1429 Ave D,Snohomish,WA,98290,www.sandbagstogo.com,Construction,SANDBAGSTOGO@GMAIL.COM
Stitch Mitchell,Sanders Law Group in Edmonds,,152 3rd Avenue South Suite 101,Edmonds,WA,98020,https://sanderslawgroupnw.com/,,
House,Screen Printing Northwest,(425) 303-3381,2526 Colby Ave.,Everett,WA,,www.screenprintingnw.com,,info@screenprintingnw.com
Amp Harrell,Seabrook,(360) 276-0099,4275 SR 109,Pacific Beach,WA,98571,seabrookwa.com,Travel / Hospitality,info@seabrookwa.com
Maury Eskenazi,Sears Hometown Stores,(360) 653-3437,1340 State Avenue,Marysville,WA,98271,http://www.searshometownstores.com/locations/marysville-wa,,ds3498@shos.com
Amp Harrell,Seatown Electric,(425) 249-2909,3431 Broadway,"Everett, WA 98201",WA,,www.seatownservices.com,,info@seatownservices.com
