record_manager,company,phone,address1,city,state,zipcode,website,industry,company_email
Chuck Maylin,Axis Roof and Gutter,(360) 653-7663,20932 67th Ave NE,Arlington,WA,98223,http://www.axisroofandgutter.com/index.php,Construction / Remodeling,sales@axisroofandgutter.com
Deanna Sigel,Edward Jones - Desiree Anderson,(360) 563-1042,602 2nd St Suite C,Snohomish,WA,98290,https://www.edwardjones.com/financial-advisor/index.html?CIRN=SYlkWQVuCiRq8zkNuj994xJ2lVIXMcijb3lbqwc2419LPrFQ%2Bglon3CCRmHOU4nr,Banking / Financial,desiree.anderson@edwardjones.con
Deanna Sigel,Flower World,(360) 668-9575,9322 196th Street SE,Snohomish,WA,98296,http://www.flowerworldusa.com/,Gardening / Landscaping,info@flowerworldusa.com
Stitch Mitchell,McClain Insurance Services,(425) 379-9200,10410 19th Ave. SE Suite 101,Everett,WA,98208,www.autohomeboat.com,Insurance,team@autohomeboat.com
Chuck Maylin,Russell & Hill Attorneys,(800) 529-0842,1732 Broadway,Everett,WA,98201,www.russellandhill.com,Attorney / Legal,Info@russellandhill.com
Maury Eskenazi,"Shop  Arlington,Tire ProsThe",(360) 435-9982,315 West Avenue,Arlington,WA,98223,www.theshopofarlington.com,Automotive/Aerospace,ryan@theshopatmissionmotors.com
Chuck Maylin,190 Sunset,(425) 329-3669,190 Sunset Avenue,Edmonds,WA,98020,www.themarket190sunset.com,,info@190sunset.com
Chuck Maylin,1st & Goal dba Century Link Field,,800 Occidental Avenue S.,Seattle,WA,98134,http://www.centurylinkfield.com/firstandgoalhospitality/,Entertainment,
Chuck Maylin,1st Response HVAC,,19231 36th Ave W Suite I,Lynnwood,WA,98036,https://www.1stresponsehvac.com/,,
Chuck Maylin,750ispossible.com,,"13620 61st Ave Se,",Everett,WA,98208,750ispossible.com,,credit@750ispossible.com
Chuck Maylin,7-Eleven,(360) 435-2534,541 WEST AVE,Arlington,WA,98223,https://www.7-eleven.com/,,info@7-eleven.com
Chuck Maylin,A Huge Production,(253) 221-8073,301 S Dunham Avenue,Arlington,WA,98223,https://centennialsk8fest.com/,,info@centennialsk8fest.com
Chuck Maylin,A Taste of Edmonds,,,Everett,WA,,,, 
Chuck Maylin,AA Asphalting LLC,,14720 Puyallup Street,,WA,98390,https://www.aaasphalting.com/,,
Amp Harrell,AAA  Auto,,1745-114th Ave. SE,Bellevue,WA,98004,www.aaawa.com,,
Deanna Sigel,Aalbu Brothers,(425) 252-9751,19129 Smokey Point Blvd,"Arlington,",WA,98223,https://www.aalbubrothers.com/,,frank@aalbubrothers.com
Amp Harrell,AARP Washington State Office,,"18000 International Blvd",Seatac,WA,98188,https://www.aarp.org/,,
Chuck Maylin,Abbey Carpet of Everett,(425) 259-6088,2601 Colby Ave.,Everett,WA,98201,everett.abbeycarpet.com,Retail/Consumer Goods,tomstiger@baysidefloorsupply.com
Chuck Maylin,Abbey Van Dam Carpet & Floor,(360) 653-2210,1060 Cedar Avenue,Marysville,WA,98270,www.abbeyvandamcarpet.com,,
Deanna Sigel,Absolute Plumbing,,222 Anderson Rd.,Mount Vernon,WA,98273,absoluteplumbingwa.com,,
Chuck Maylin,Abundant Faith International Center,(360) 651-8016,13917 Smokey Point BLVD,Marysville,WA,98271,www.drjasonmartin.org,,aficcinbox@outlook.com
Chuck Maylin,Accents & Interiors,(425) 368-1300,19501 144th Ave NE,Woodinville,WA,98072,https://www.accents-interiors.com/,Construction,
Chuck Maylin,Ace Acme Septic Services[=,,17924 67th Ave NE,Arlington,WA,98223,http://www.aceacme.com/contact_us,,
Deanna Sigel,Ace Hardware - Lake Stevens & Everett,(425) 334-7630,303 91st Av NE,Lake  Stevens,WA,98258,,,acehardware14901@live.com
Chuck Maylin,Active Excavator,,17281 Tye St SE,Monroe,WA,98272,activeexcavator.com,,
Deanna Sigel,AdCellerant,,"3461 Ringsby Ct",Denver,CO,80216,support.adcellerant.com,,
House,Admark Services,,2107 Elliott Ave #308,Seattle,WA,98121,www.admarkservices.com,,
Chuck Maylin,Advanced Care Animal Clinic,(360) 651-8000,16820 Smokey Point Blvd Suite 2,Arlington,WA,98223,advancedcareanimalclinic.com,,info@advancedcareanimalclinic.com
Maury Eskenazi,Advanced Skin Therapy,,16404 Smokey Point Blvd Ste 205,Arlington,WA,98223,http://smokeypointskin.com/,,info@smokeypointskin.com
Amp Harrell,Advantaclean of the Eastside,,,,WA,,,,
Chuck Maylin,"Advocates at Driggs, Bills & Day, PLLCho",,2125 Western Ave Ste 500,Seattle,WA,98121,https://www.advocateslaw.com/,,
Amp Harrell,Aesir Meadery,,,,WA,,www.aesirmeadery.com,Beverages,
Maury Eskenazi,Affinity at Arlington,,3721 169th St NE,Arlington,WA,"98223,",affinityatarlington.com,,
Chuck Maylin,Affirm Clinic,,"21701 76th Avenue West",Edmonds,WA,98026,https://www.affirmclinic.com/,,
Chuck Maylin,AHM Brands,,,,,,,,
Chuck Maylin,AIA - American Insure-All,,3323 169th Pl NE Ste. D,Arlington,WA,98223,,,
Amp Harrell,Air Pros Heating & Cooling,,23502 35th Ave W,Lynnwood,WA,,https://www.airproenergy.com/,,
Deanna Sigel,AK AIR,,,,WA,,,,
Deanna Sigel,Alaska Airlines,(206) 433-3200,,Seattle,WA,,https://www.alaskaair.com/,,
Chuck Maylin,Albert Lee Appliance,,18620 33rd Ave W,Lynnwood,WA,98037,,,
Amp Harrell,Alderwood Dental,(425) 771-8861,3400 188th St SW,Lynnwood,WA,98037,alderwooddental.net,Healthcare / Medical,
Chuck Maylin,Alexander Printing,(425) 252-4212,2807 Rockefeller Av,Everett,WA,98201,www.alexanderprint.com,,
Amp Harrell,Alexa's Cafe,,,Bothell,WA,,https://alexascafe.com/,Restaurant,
Deanna Sigel,All City Fence,,36 S Hudson St,Seattle,WA,,https://www.allcityfence.com/,,
Chuck Maylin,All Seasons Spa and Stoves,,131 W. Division St.,Arlington,WA,98223,http://all-seasons-spa-stove.com,,
Chuck Maylin,Allstate,,"8817 Viking Way,",Stanwood,WA,98292,https://agents.allstate.com/pam-fisher-stanwood-wa.html,,
Chuck Maylin,Allstate - Brian Reed,(425) 337-4646,"1327 112th St Se, Ste A1",Everett,WA,98208,https://agents.allstate.com/brian-reed-everett-wa.html,,brianreed@allstate.com
Chuck Maylin,Allstate Insurance - Zach Hubbell,,1349 State Ave Ste A,Marysville,WA,98270,https://agents.allstate.com/zachary-hubbell-marysville-wa.html?utm_source=GMB&utm_medium=Website,,
Chuck Maylin,Allstate of Arlington,(360) 283-4175,7420 204th St NE,Arlington,WA,98223,,Financial / Insurance,
Chuck Maylin,Alpine Specialty Cleaning,,,,WA,,alpineclean.com,,
Maury Eskenazi,Alternative Roofing Systems,,,,WA,,http://www.altroofing.com/,,
Maury Eskenazi,Althea’s Footwear Solutions,(425) 303-0108,1932 Broadway,,WA,,www.altheasfootwearsolutions.com,,althea@altheas.net
Maury Eskenazi,Altitude Trampoline Park,(425) 217-2558,6610 64th st N.E.,Marysville,WA,98270,altitudemarysville.com,,info@altitudemarysville.com
Stitch Mitchell,Alzheimers Association Washington State Chapter,(206) 363-5500,19031 33rd Ave W #301,Lynnwood,WA,98036,https://www.alz.org/alzwa,Healthcare / Medical,InquiryWa@alz.org
Chuck Maylin,"Amarillo Restaurant and Tavern, The",(360) 217-8484,116 E Main Monroe,Monroe,WA,98272,https://www.the-amarillo.com/,Restaurant,theamarillo@comcast.net
Chuck Maylin,American Brewing,(425) 774-1717,180 W Dayton St,Edmonds,WA,98020,https://www.americanbrewing.com/,,
Chuck Maylin,American Cancer Society Snohomish County,(425) 404-2194,"728 134th Street SW, Ste 101",Everett,WA,98204,www.cancer.org,,hannah.sladek@cancer.org
Chuck Maylin,American Cremation and Casket Alliance,(360) 651-9233,3710 168th st.B209,Arlington,WA,98223,/www.americancremation.com,,acca@americancremation.com
Chuck Maylin,American Distributing,(360) 658-3751,13618 45th Ave NE,Marysville,WA,98271,www.americandistributing.com,Energy/Utilities,
Amp Harrell,American Home Planners,,2812 Colby Avenue,Everett,WA,98201,http://americanhomeplanners.com/,,
Stitch Mitchell,American Parkinson Disease Association Northwest Chapter,,180 Nickerson Street,Seattle,WA,98109,https://www.apdaparkinson.org/community/northwest/,,
Chuck Maylin,American Patio Covers Plus,(360) 658-7281,5916 195th St. NE,Arlington,WA,98223,https://americanpatioconcepts.com,,
Chuck Maylin,American Senior Resources,,1624 Broadway,Everett,WA,98201,http://www.asrwebsite.com/Our-Mission.1.htm,,
Chuck Maylin,Amundson's Auctions,(425) 220-5325,8806 Viking Way,Stanwood,WA,,www.amundsonsauctions.com,,scott@amundsonsauctions.com
Chuck Maylin,Anacortes Brewery (Rock Fish Grill),(360) 588-1720,320 Commercial AVE,Anacortes,WA,98221,http://www.anacortesrockfish.com/,,
Chuck Maylin,Anacortes Chamber of Commerce,,,,WA,,,,
Chuck Maylin,Anderson Fireplace & Spas,,2027 Broadway,Everett,WA,98201,www.anderfire.com,Heating Air Conditioning,
Chuck Maylin,Anderson Hunter Law,,2707 Colby Avenue,Everett,WA,98201,http://www.andersonhunterlaw.com/,Attorney / Legal,
Chuck Maylin,Andrews Hay,,"22002 59th Ave NE,",Arlington,WA,98223,,,
Deanna Sigel,Angel of the Winds Arena,(425) 322-2600,2000 Hewitt Ave Suite 200,Everett,WA,98201,https://www.angelofthewindsarena.com/,,
Chuck Maylin,Angel of the Winds Casino,(360) 474-9740,3438 Stoluckquamish Lane,Arlington,WA,98223-8455,www.angelofthewinds.com,Entertainment,
Deanna Sigel,Animal Medical Center of Seattle,,17518 15th Ave NE,Shoreline,WA,98155,https://animalmedicalspecialists.com/,,
Chuck Maylin,Apex Media,,11014 27th St SE,Lake Stevens,WA,98258,apexmediaseattle.com,,
Chuck Maylin,Arch Stone Masonry,,1928 Turk Dr,Tulalip,WA,98271,https://archstonemasonry.com,,
Amp Harrell,Arena Sports,,9040 Willows Road NE,Redmond,WA,425-885-4881,http://www.arenasports.net,Sporting Events,
Chuck Maylin,Arlington Fly-In,(360) 403-3442,4700 188th Street NE,Arlington,WA,98223,www.arlingtonflyin.org,Automotive/Aerospace,barbara.tolbert@arlingtonflyin.org
Chuck Maylin,Arlington Hardware & Lumber,,215 N Olympic Ave,Arlington,WA,98223,arlingtonhardware.com,,
House,Arlington School of Massage,,"303 N Olympic Ave,",Arlington,WA,98223,https://www.asomschoolofmassage.com/,Education,asomschool@gmail.com
House,Aroo Automotive,(425) 263-9195,"2929 Rucker Ave,",Everett,WA,98201,www.arooautomotive.com,Automotive/Aerospace,dave@arooautomotive.com
Maury Eskenazi,Arrowhead Ranch,,615 Arrowhead Rd,Camano Island,WA,98282,arrowheadranchcamano.com/,,
House,At Large Brewing Company,(425) 324-0039,2730 W. Marine View Dr.,Everett,WA,98201,https://atlargebrewing.com/,,
Amp Harrell,AT&T Mobility,,"1402 Everett Mall Way",Everett,WA,98201,http://www.att.com/,,
House,"Attic, The",(360) 659-7305,4229 76th ST NE,Marysville,WA,,www.atticsecrets.com,,Kelli@atticsecrets.com
House,AXIS  Northwest Pharmacy,(425) 356-3276,6007 244th St. SW Ste A2,Mountlake Terrace,WA,98043,https://www.axispharmacynw.com/,,info@axispharmacynw.com
House,A-Z Transmission & Differentials,(360) 842-0132,405 N. West Ave.,Arlington,WA,98223,http://www.a-ztransmission.com/,,
House,Back 9 Parlor,(425) 582-9813,3105 Alderwood Mall Blvd,Lynnwood,WA,98036,back9parlor.com,,info@back9parlor.com
Stitch Mitchell,Bad Dog Distillery,,19109 63rd Avenue N.E. Suite 1 A,Arlington,WA,98223,http://www.baddogdistillery.com,,
Amp Harrell,Bales Restoration,,,,WA,,balesrestoration.com,,
House,Barron Heating Air Conditioning,,5100 Pacific Highway,Ferndale,WA,98248,www.barronheating.com,,
Amp Harrell,Barry Bunnell Construction,(360) 502-3585,15184 168th Dr SE,Monroe,WA,98272,http://www.bbimprovements.com/,Construction,barry@bbimprovements.com
Deanna Sigel,Bartells Drugs,,4727 Denver Avenue South,Seattle,WA,98134,www.bartelldrugs.com,,
Maury Eskenazi,Basic Steps Mental Health,(425) 588-8438,"12199 Village Center Pl #203,",Mukilteo,WA,98275,basicsteps.life,,info@basicssteps.life
Amp Harrell,Bay Alarm - Everett,,8115 Broadway,Everett,WA,98203,www.bayalarm.com/evergreen/,,
Amp Harrell,Bayside Marine,,1111 Craftsman Way,Everett,WA,98201,baysidemarine.com,,
Amp Harrell,Beach Watchers WSU Snohomish County Extension,,600 128th ST SE,Everett,WA,98208,www.wsusoundliving.org,,
Chuck Maylin,Beals Cunningham,(405) 478-4752,2333 East Britton Rd,Oklahoma,OK,73131,www.bealscunningham.com,Advertising/Marketing,
Deanna Sigel,BECU,,,Marysville,WA,98270,www.becu.org,,
Amp Harrell,Beef Jerky Outlet,(425) 239-8927,8825 34th Ave NE,Marysville,WA,98271,www.jerkycoast2coast.com,,tulalipbeefjerkymanagement@comcast.net
Chuck Maylin,Behars Furniture,,2105 Broadway,Everett,WA,98201,www.behars.com,Retail / Consumer Goods,getinfo@behars.com
House,Ben Bridge Jewelers,,"2901 Third Ave, suite 200",Seattle,WA,98111,,,
