record_manager,company,phone,address1,city,state,zipcode,website,industry,company_email
Stitch Mitchell,strategy3degrees.com,,621 Pacific Ave Suite 107,Tacoma,WA,98402,strategy3degrees.com,,
Deanna Sigel,Stratocent Technologies,(206) 429-8760,8618 N183rd St,Kirkland,WA,98034,https://www.stratocent.com/,Computers / Technology,jim@stratocent.com
House,Summit Everett,(425) 349-0131,2820 Rucker Avenue,Everett,WA,98201,summiteverett.com,,
House,Sun Mountain Lodge,,209 Castle Ave.,Winthrop,WA,98862,sunmountainlodge.com,,
Deanna Sigel,Sunrise Pest Management,,"1840 130th Ave NE Ste 13,",Bellevue,WA,,sunrisepest.com,,
Stitch Mitchell,Supercharge Marketing,,,,WA,,https://superchargemarketing.com/,,
Maury Eskenazi,Supra Pro Wakeboard Tour,(407) 628-4802,"460 N. Orlando Ave.,","Winter Park,",FL,32789,www.bonnier.com,,info@bonniercorp.com
Amp Harrell,SweetHome Snohomish Renovations,(425) 357-7961,,Snohomish,WA,98290,https://sweethomesnohomishrenovations.com/,Construction,
Amp Harrell,Swinomish Casino and Lodge,(360) 293-2691,12885 Casino Drive,Anacortes,WA,98221-8607,https://www.swinomishcasinoandlodge.com/,Casino / Gambling,
Maury Eskenazi,Swire Coca Cola,,1150 124th AVE NE,Bellevue WA,WA,98005,https://www.swirecc.com/,,
Deanna Sigel,Symmetria Integrative Medical,,9528 State Avenue,Marysville,WA,98270,www.symmetriamedical.com,,
Deanna Sigel,T Mobile,,2920 SE 38th Street.,Bellevue,WA,98006,t-mobile.com,,
House,Tacher Radio Reps,,2300 130TH AVE NE STE 104,Bellevue,WA,98005,tacherradioreps.com,,greg.tacher@tacherradioreps.com
Maury Eskenazi,Target Zero Kitsap,,,,WA,,,,
House,Taylor's Plumbing Solutions,(425) 330-1230,P.O. Box 1372,Lake Stevens,WA,98258,www.taylorsplumbingsolutions.com/,,
Maury Eskenazi,Team Nelson Earthwork and Utilities,,21820 87th ave se,Woodinville,WA,98072,wwwteamnelsoninc.com,,
Amp Harrell,Teamsters Local 38,,2601 Everett Ave,Everett,WA,98201,http://www.teamsters38.org/,,
Maury Eskenazi,The Colour Coach Mindful Design and Consultation,(206) 478-6159,,Everett,WA,98201,/the-colour-coach.com,,artistherapy@gmail.com
Amp Harrell,The Door House,,2710 Hewitt Ave.,Everett,WA,98201,https://thebestdoorhouse.com/,,
House,The Growler Guys,(206) 522-2337,8500 Lake City Way NE,Seattle,WA,98115,https://www.thegrowlerguys.com/locations/seattle-northeast/,,
Deanna Sigel,The Home Center Stanwood Furniture,,"10008 270th St NW,",Stanwood,WA,982892,https://www.thehomecenters.com/,,
Amp Harrell,The Law Office of J. Michael Gallagher,(360) 794-7531,1203 West Main Street,Monroe,WA,,http://dontbeaweekendparent.com/,,
Deanna Sigel,The Learning Experience,,"17512 Bothell Everett Hwy,",Bothell,WA,98012,thelearningexperience.com,,
House,The Outlet Shoppes at Burlington,(360) 757-3548,448 Fashion Way,Burlington,WA,98223,https://www.theoutletshoppesatburlington.com,,
Deanna Sigel,The Picnic Pantry,,"8706 271st Street NW,","Stanwood,",WA,98292,www.thepicnicpantry.com,,
Stitch Mitchell,The Spur Festival,,P.O Box 31816,Bellingham,WA,98228,thespurfestival.com,,
House,Three Kees Cider Company,,22831 Woods Creek Rd,Snohomish,WA,98290,http://www.threekeescider.com/,,
House,Thrive Community Fitness - Monroe,,118 N Lewis St. #104,Monroe,WA,98019,http://www.thrivecf.com/monroe-home.aspx,,
Amp Harrell,Thryv,,,,WA,,https://emp.thryv.com/site/TimDennis,,
Amp Harrell,Tila Mortgage,,,Bothell,WA,,tilamortgage.com,,
Amp Harrell,Tilth Alliance,,4649 Sunnyside Ave N,Seattle,WA,98103,,,
Amp Harrell,Tinte Cellars,,19495 144th Ave NE,Woodinville,WA,98072,,,
House,Toggles Bottle Shop,,1420 Hewitt Ave,Everett,WA,98201,,,
Amp Harrell,Tony V's Garage Saloon & Eatery,,1716 Hewitt Ave,Everett,WA,98201,,,
Amp Harrell,Touchdown Delivery,,,Stanwood,WA,,,,
House,Travel Time Inc.,,7309 Newport Dr.,Arlington,WA,98223,,,
Chuck Maylin,Trico,(360) 757-2373,15066 Josh Wilson Road,Burlington,WA,98233,www.tricocompanies.com,,info@tricocompanies.com
House,Trident Plumbing And Drain Cleaning,(425) 321-6043,14751 W Kelsey St,Monroe,WA,98272,www.tridentplumbinganddrain.com,Construction,
Amp Harrell,Trident Seafoods,(206) 783-3818,5303 SHILSHOLE AVE NW,Seattle,WA,98107,ThePopUpFishShop.com,Food,ffinfo@theforkandfin.com
Amp Harrell,Tubs Gourmet Subs,(425) 741-9800,4400 168th St SW,Lynnwood,WA,98037,tubssubs.com,Food,info@tubssubs.com
Stitch Mitchell,Tulalip Bingo,,10200 Quil Ceda Blvd.,Tulalip,WA,98271,,,
Stitch Mitchell,Tulalip Boys and Girls Club,,,,WA,,https://www.tulaliptribes-nsn.gov/Residents/BoysAndGirlsClub,,
Stitch Mitchell,Tulalip Resort Casino,,10200 Quilceda Blvd.,Tulalip,WA,98271,www.tulalipresortcasino.com,,
Deanna Sigel,Two Men and A Truck,(425) 336-0856,"607 SE Everett Mall Way,",Everett,WA,98208,twomenandatruck.com,Transportation,
Amp Harrell,University of Washington Bothell,,"18115 Campus Way NE",Bothell,WA,98011,https://www.uwb.edu/community-engagement,,
Stitch Mitchell,Upper Left Beer Fest,,,,WA,,www.fizzeventsnw.com,,
Deanna Sigel,Uppercase Bookshop,(360) 217-8521,1010 Second Street,Snohomish,WA,98290,https://www.uppercasebookshop.com/,,
Deanna Sigel,Utility Notification Center,(503) 232-1987,305 N.E. 102nd Avenue,Portland,OR,97220,,,gregsnyder@occinc.com
Amp Harrell,"Valley Organic Deli, The",,2805 Colby Avenue,Everett,WA,98201,www.valleyorganicdeli.com,,
Amp Harrell,Valpak of Greater Seattle,,23607 Hwy 99,Edmonds,WA,98026,https://www.valpak.com/advertise/local/seattle,,
Amp Harrell,VanderBeken Remodel & Repair,(425) 870-8123,,,,,http://www.vanderbeken-remodel.com/,Construction,info@vanderbeken-remodel.com
House,Verdant Health Commission,,4710 196th St. SW,Lynnwood,WA,98036,http://verdanthealth.org/,,
Stitch Mitchell,VFW Old Guard Post 2100,,2711 Oakes Avenue,Everett,WA,98201,vfwpost2100.org,,
Stitch Mitchell,VFW Post 2554,,"605 First Street",Sultan,WA,98294,sultanvfw2554.org,,
Stitch Mitchell,VFW Post 9417 Martin-Osterholtz Post,,"301 3rd St",Gold Bar,WA,98251-9277,https://www.facebook.com/GBVFWPOST9417/,,
Chuck Maylin,Viking Construction Group,(425) 286-8131,2609 Wetmore Ave,Everett,WA,98201,www.vikingcg.net,Construction,
Stitch Mitchell,Villa Insurance Group,,18910 28th Ave. W. Ste. 201,Lynnwood,WA,98036,https://www.villainsurancegroup.com/,,
Stitch Mitchell,Village Community Services,,"3210 Smokey Point Drive, Suite 200",Arlington,WA,98223,villagecommunitysvcs.org,,
Stitch Mitchell,Village Concepts,,909 South 336th St. Suite 200,Federal Way,WA,98003,villageconcepts.com,,
Deanna Sigel,Village Theatre - Everett Performing Arts Center,(425) 257-8600,2710 Wetmore Avenue,Everett,WA,98201-3552,https://www.villagetheatre.org/everett/index.php,,boxofficeeverett@villagetheatre.org
House,Visiting Angels,,2532 Wetmore Ave,Everett,WA,98201,https://www.visitingangels.com/,,
Amp Harrell,Volunteers of America WW,,2802 Broadway Av,Everett,WA,98206,www.voaww.org,,
Stitch Mitchell,W.S.C. Homes,,,,WA,,wschomesinc.com,,
Chuck Maylin,Wagner Jewelers,(360) 653-8200,9611 State Ave # E,Marysville,WA,98270,http://www.wagnerjewelers.net/,,info@wagnerjewelers.net
Chuck Maylin,Walthew Law Firm - Everett,(206) 203-9246,3000 1st Avenue,Seattle,WA,98121,www.walthew.com,,info@walthew.com
House,Warm Beach - The Lights of Christmas,,20800 Marine Dr,Stanwood,WA,98292,http://www.thelightsofchristmas.com/,,
Stitch Mitchell,Washington Beer Commission,,1501 North 200th Street Suite 111,Shoreline,WA,98133,washingtonbeer.com,,
Stitch Mitchell,Washington Dept. of Ecology,,P.O. Box 47600,Olympia,WA,98504,ecy.wa.gov,,
Deanna Sigel,Washington Energy Services,,2800 Thorndyke Ave W,Seattle,WA,98199,,,
Tom Lafferty,Washington Festivals & Events Association,(360) 441-7190,1015 Georgiana St,Port Angeles,WA,98362,wfea.org,Entertainment,info@wfea.org
Maury Eskenazi,Washington Pipe Trades,,,,WA,,washingtonpipetrades.org,,
House,Washington State Dept Of Corrections-Monroe,,16550 177th Ave. S.E.,Monroe,WA,98272,http://www.doc.wa.gov,,
Chuck Maylin,Washington State Fair,,110 9th Ave SW,Puyallup,WA,98371,http://www.thefair.com/,,
Amp Harrell,Washington State Office of Financial Management,,P.O. Box 43113,Olympia,WA,98504,https://www.ofm.wa.gov/,,
Chuck Maylin,Washington State University - Everett,,915 N Broadway,Everett,WA,98201,http://everett.wsu.edu/contact/,,
House,Washington Tractor,(425) 334-4048,3305 Bickford Ave.,Snohomish,WA,98290,https://www.washingtontractor.com/map-and-directions-dealership--hours-snohomish,Automotive/Aerospace,
Maury Eskenazi,Washington Tribes,,,,WA,,,,
Amp Harrell,Washington's Lottery,,PO Box 43000,Olympia,WA,98504,https://www.walottery.com/,,
House,Waste Management NorthWest,(800) 592-9995,P.O.Box 12070,Mill Creek,WA,98082,http://www.wmnorthwest.com/ssnohomishcounty/index.html,,
Deanna Sigel,Wave Broadband,,401 Kirkland Place,Kirkland,WA,,wavebroadband.com,,
Deanna Sigel,Wave Business,(844) 910-8519,401 Parkplace Center,Kirkland,WA,98033,www.wavebusiness.com,Communication,
Deanna Sigel,We Honey Do,,10600 Woodinville Drive,Bothell,WA,98011,wehoneydo.com,,
Chuck Maylin,Welcome Magazine - Snohomish County,(425) 280-9569,,Mukilteo,WA,98275,www.welcomemagsnoho.com,Publishing,editor@welcomemagsnoho.cm
House,West Coast Armory North,(425) 265-7143,11714 Airport Rd,Everett,WA,98204,http://www.westcoastarmorynorth.com/,,
Deanna Sigel,West Coast Plumbing,,7419 204th st NE,Arlington,WA,98223,,,
Amp Harrell,Western Washington Medical Group,,1728 W. Marine View Drive,Everett,WA,98201,www.wwmedgroup.com,,
House,Westlake Promotions Inc,,PO Box 12392,Mill Creek,WA,98082,www.westlakepromo.com,,
Maury Eskenazi,Whidbey Island Vacation Rentals,,5565 Lotto Ave,Freeland,WA,,whidbeyvacation.com,,
House,Whistle Stop Sweet Shop,(360) 322-7432,1508 3rd St,Marysville,WA,98270,www.whistlestopsweetshop.com,Food,wstopofmsvl@hotmail.com
Amp Harrell,Whistle Workwear,,10121 Evergreen Way #30,Everett,WA,98204,www.whistleworkwear.com,,
House,White Rabbit,,15928 HWY 99 South,Lynnwood,WA,98087,WhiteRabbitCannabis.com,,
Amp Harrell,Whitehorse Saloon,(360) 435-3122,304 N Olympic Avenue,Arlington,WA,98223,facebook.com/Whitehorse-Saloon-115568388465981/,Beverages,
Deanna Sigel,Whitewall Brewing Company,(360) 454-0464,14524 Smokey Point Blvd Suite 1,Marysville,WA,98271,https://www.whitewallbrewing.com/,,whitewall@whitewallbrewing.com
House,Whitley Evergreen,,14219 Smokey Point Blvd.,Marysville,WA,98271,www.whitleyman.com,,
Chuck Maylin,Wide Orbit,,601 Canyon Dr,Coppell,TX75019,,www.wideorbit.com,,
Deanna Sigel,Wilcox Family Farms,(360) 458-7774,"40400 Harts Lake Valley Rd,",roy,WA,98580,,,
Deanna Sigel,Wild Alaskan Company,,,,WA,,https://wildalaskancompany.com,,sockeye@wildalaskancompany.com
Deanna Sigel,Wild Waves,,36201 Enchanted Parkway S,Federal Way,WA,98003,https://www.wildwaves.com/,,
Amp Harrell,WILLOWS LODGE,,14580 NE 145TH STREET,Woodinville,WA,98072,,,
House,Windermere,,,,WA,,,,
Deanna Sigel,Windermere Mukilteo,(425) 348-5960,12003 Mukilteo Speedway Unit 101,Mukilteo,WA,98055,www.mukilteo.windermere.com,Real Estate,dora@dcarelli.com
Amp Harrell,Woodinville Chamber of Commerce,,14700 148th Ave NE,Woodinville,WA,98072,https://woodinvillechamber.org/,,
Stitch Mitchell,Woodinville Whiskey Company,,14509 Woodinville Redmond Road NE,Woodinville,WA,98072,woodinvillewhiskeyco.com,,
Amp Harrell,Woodinville Wine Country,,14700 148th Ave NE,Woodinville,WA,98072,,,
House,Woodland Park Zoo,,,Seattle,WA,98103,http://www.zoo.org/,,
Stitch Mitchell,Work N' More,,3602 Broadway,Everett,WA,98201,www.worknmore.com,,nfo1@worknmore.com
Stitch Mitchell,Work N' More,(425) 259-0026,3602 Broadway,Everett,WA,98201,worknmore.com,,info1@worknmore.com
Maury Eskenazi,WorkSource,,3201 smith ave suite 413,Everett,WA,98201,,,
House,World Wake Association,,,,,,www.thewwa.com,,info@thewwa.com
House,Wounded Warriors in Action Foundation,,2922 Chester Lane,Caldwell,ID,83605,wwiaf.org,,
Maury Eskenazi,WTSC (Washington Traffic Safety Commission),,621 8th Av Ste 409,Olympia,WA,98504,www.wtsc.wa.gov,,
Deanna Sigel,Yardmaster,(206) 232-9273,"13429 SE 30th St Ste 2,",Bellevue,WA,98005,yardmasterinc.com,,info@yardmasterinc.com
Chuck Maylin,YMCA of Snohomish County,(425) 740-9622,4730 Colby Avenue,Everett,WA,98203,www.ymca-snoco.org,,info@ymca-snoco.org
Amp Harrell,Ziply Fiber,,PO Box 1127,Everett,WA,98206,https://get.ziplyfiber.com/,,
Amp Harrell,ZOOM+Care,(503) 684-8252,24118 Bothell Everett Hwy,Bothell,WA,98021,https://www.zoomcare.com/clinic/zoomcare-bothell,Healthcare / Medical,
