record_manager,company,phone,address1,city,state,zipcode,website,industry,company_email
Deanna Sigel,Parris Blue Photography,,13714 103rd Ave NE,Arlington,WA,98223,www.parrisblue.com,,
Amp Harrell,Pawprint Promotions,,,,,,,,
Stitch Mitchell,Paws with Cause,,,,WA,,pawswithcause.org,,
Stitch Mitchell,PCS Everett Real Estate,,2809 Colby Avenue,Everett,WA,98201,pcseverett.com,,
Deanna Sigel,Peoples Bank - Corporate,(800) 584-8859,3100 Woburn St,Bellingham,WA,98226,www.peoplesbank-wa.com,,
Chuck Maylin,Petite Sweet Bakery & Cafe,(425) 258-1800,2613 Colby Av,Everett,WA,98201,www.petitesweetbakery.com,,info@petitesweetbakery.com
Maury Eskenazi,Pharm A Save Medical Supply,(360) 794-7351,17788 147th St. S.E.,Monroe,WA,,www.pharmasavemonroe.com,Healthcare/Medical,info@pasmonroe.com
Deanna Sigel,Phillips Law Firm,(888) 984-2033,17410 133rd Ave NE #301,Woodinville,WA,98072,https://www.justiceforyou.com/attorneys/,Attorney / Legal,httglenn@justiceforyou.com
Amp Harrell,Pilchuck Rentals,,9114 State Avenue,Marysville,WA,98270,http://pilchuckrents.com/,,
Amp Harrell,Pillars Group,,,,WA,,https://www.pillarsgrp.com/,,
Chuck Maylin,Plantworks,,,,,,https://www.plantworksnw.com/,,
Chuck Maylin,Plasma Lab International,(425) 258-3653,3128 Norton Avenue,Everett,WA,98201,www.plasmalab.com,Healthcare / Medical,info@plasmalab.com
Chuck Maylin,Platinum CRM Consulting,,,,WA,,,,
House,PLC Insurance,,4211 Alderwood Mall Blvd,Lynnwood,WA,98036,http://www.plcins.com/,,
House,Poe Advertising,,"8996 Miramar Road, Suite 310",San Diego,California,92126,poeadv.com,,
House,"Point Bar and Grill, The",,3528 168th St NE,Arlington,WA,98223,https://www.pointbarandgrill.net/,,
House,Polygon Homes,,11624 SE 5th St. Suite 200,Bellevue,WA,98005,polygonhomes.com,,
Chuck Maylin,Port Gardner Bay Winery,(425) 339-0293,3006 Rucker Ave,Everett,WA,98201,https://portgardnerbaywinery.com/,,wine@portgardnerbaywinery.com
Stitch Mitchell,Port of Edmonds,,336 Admiral Way,Edmonds,WA,98020,portofedmonds.org,,
Deanna Sigel,Port of Everett,,1205 Craftsmen Way,Everett,WA,98201,http://www.portofeverett.com/,,
Stitch Mitchell,Portofino Restaurant and Bar,,1306 Olympic View Drive,Edmonds,WA,WA 98020,portofinopizza.com,,
Chuck Maylin,Post Media Team,,"2707 Colby Avenue, Suite 1380",Everett,WA,98201,www.everettpost.com,Communication,
House,Pratt Plastic Surgery,(425) 258-3446,4005 Colby Avenue,Everett,WA,98201,https://prattplasticsurgery.com,,contact@prattplasticsurgery.com
Chuck Maylin,PRC Cannabis,,5200 172nd St NE,Mt Vernon,WA,98273,http://prcconway.com,,
Maury Eskenazi,PRCBD,,5200 172nd St NE suite f-103,,WA,,prcbd.com,,
Amp Harrell,Precision Turf Equipment,,7525 Lowell Snohomish River Rd,Snohomish,WA,98296,http://www.precision-turf.com/service,,
House,Pregnancy Resource Center of Snohomish County,(425) 339-2175,4310 Hoyt Ave,Everett,WA,98203,http://www.realchoices.com/,,
House,Pregnancy Resource Center of Snohomish County,(425) 339-2175,4310 Hoyt Ave,Everett,WA,98203,http://www.realchoices.com/,,
Chuck Maylin,Premier Polaris,(360) 794-8669,122 Charles St,Monore,WA,98272,www.premierpolaris.com,,
House,Pro Aerial League,(208) 790-4921,5818 NE 1st Street,Renton,WA,98059,proaerialleague.com,,
Chuck Maylin,Procura Mortgage,,2924 Colby Ave,Everett,WA,98201,www.procuramortgage.com,,info@procuramortgage.com
Maury Eskenazi,Procura Mortgage Company,(425) 257-4441,2924 Colby Ave,Everett,WA,98201,www.procuramortgage.com,Financial/Insurance,
Maury Eskenazi,Production Sports,,21810 76th Avenue W.,Edmonds,WA,98026,www.productionsport.net,,
House,Proliance Surgeons Corporate,(206) 264-8100,805 Madison St,Seattle,WA,98104,https://www.proliancesurgeons.com/,,reception@proliancesurgeons.com
Stitch Mitchell,Propeller Airports Paine Field LLC,,"9724 32nd Place West, 2nd Floor",Everett,WA,98204,propellerairports.com,,
Amp Harrell,ProStar Insurance,(425) 529-5128,10308 NE 183rd ST,Bothell,WA,98011,https://www.prostarinsurance.com/,Financial / Insurance,
Chuck Maylin,Providence Hospice and Home Care Foundation / Snohomish County,,2731 Wetmore,Everett,WA,98201,www.providence.org/phhc,,
Deanna Sigel,PSNW Commisary Kitchen,,10219 269th St NW,,WA,98292,,,
House,Puff N Chill,(425) 412-3705,15919 HWY 99,Lynnwood,WA,98087,puffnchill.com,,info@puffnchill.com
Stitch Mitchell,Puget Sound Express,,227 Jackson Street,Port Townsend,WA,98368,pugetsoundexpress.com,,
Amp Harrell,Puget Sound Investment Solutions,,601 State Ave,Marysville,WA,98270,http://pugetsoundinvestmentsolutions.com,,
House,Puget Sound Marijuana,(425) 678-8106,14806 hwy 99 ste 304,Lynnwood,WA,,pugetsoundmarijuana.com,,pugetsoundmarijuana@gmail.com
Chuck Maylin,Purcell Tires,(888) 787-2355,301 N. Hall Street,Potosi,MO,63664,www.purcelltire.com,Automotive/Aerospace,
Deanna Sigel,Pure Smoke BBQ NW,,10219 269th Pl NW,Stanwood,WA,98292,puresmokenw.com,,
Amp Harrell,PureClean Carpet Cleaning,,19726 144th Ave NE,Woodinville,WA,98072,,,
House,Purple Haze,,4218 Rucker Ave,Everett,WA,98201,http://www.purplehazellc.com/index.php,,
House,QFC - Quality Food Centers,,,,WA,,http://www.thekrogerco.com/contact-us,,
Amp Harrell,Quality Countertops,(425) 303-9180,3411 Hayes St,Everett,WA,98201,https://qualitycounterseverett.com/,Services / Consulting,sales@qualitycounter.com
House,Quality Fitness,(206) 478-4147,"8221, suite e, 44th Ave W",Mukilteo,WA,98275,http://www.qualityfitnessmukilteo.com/,,
Stitch Mitchell,Quil Ceda Creek Nightclub & Casino,,6410 33rd Avenue,Tulalip,WA,98271,http://www.quilcedacreekcasino.com,,
House,Quil Ceda Happy Dental,,8825 34th AVE NE Suite M,Tulalip,WA,98271,www.marysvilledentists.com,,
Amp Harrell,Quil Ceda Village.,(360) 716-5000,,Quil Ceda,WA,98271,www.quilcedavillage.com,,
House,Quinault Beach Resort Casino,(888) 461-2214,P.O. Box 2107,Ocean Shores,WA,98569,http://www.quinaultbeachresort.com/events/,,info@quinaultbeachresort.com
Deanna Sigel,R & L Window Replacements,(425) 210-5588,"8531 Vistarama Ave., Suite A",Everett,WA,98028,https://www.rnlwindows.com/,,
Chuck Maylin,R & R Foundation Specialist,(425) 760-5077,3409 McDougall Avenue,Everett,WA,98201,www.rrfoundationspecialist.com,Construction,
Chuck Maylin,Radio Music License Committee,(615) 844-6260,1616 Westgate Circle,Brentwood,TN,37027,www.radiomlc.org,Radio Industry,info@radiomlc.org
Deanna Sigel,Rainy Day Basement Systems,(360) 727-8097,18931 59th Ave NE,Arlington,WA,98223,http://www.rainydaybasementsystems.com/,,
Maury Eskenazi,Rairdon's Dodge Chrysler Jeep Ram Monroe,,16413 West Main Street,Monroe,WA,98272,http://www.dodgechryslerjeepofmonroe.com/staff.aspx,,
Maury Eskenazi,Rairdon's Dodge Chrysler Jeep Ram Smokey Pt,(855) 991-1763,16610 Smokey Point Blvd,Arlington,WA,98223,dodgechryslerjeepofmarysville.com,,info@dodgechryslerjeepofmarysville.com
Maury Eskenazi,Rairdons Honda Of Marysville,,15714 Smokey Pt. Blvd,Marysville,WA,98271,http://www.hondaofmarysville.com/,,hofmsales@rairdon.com
Amp Harrell,Ram Restaurant and Brewery,,10520 Quil Ceda Blvd,Tulalip,WA,98271,www.theram.com,,
Amp Harrell,Randy's Ring & Pinion d.b.a. Randy's Worldwide,,"10411 Airport Road",Everett,WA,98204,www.randysworldwide.com,,
Amp Harrell,Razzals Sports Bar & Grill,(425) 290-6224,"1114 Evergren Way ",Everett,WA,98204,,Restaurant,
Amp Harrell,RE/MAX Elite,,2917 Pacific Ave,Everett,WA,,http://www.elitespeedwayhomes.com/home.html,,
Deanna Sigel,Red Cork Bistro,,"11700 Mukilteo Speedway #405,",Mukilteo,WA,98275,redcorkbistro.com,Restaurant,
Stitch Mitchell,Reece Construction Company,,"1607 114th St NE",Tulalip,WA,98271,http://reececonstructioncompany.com,,
Chuck Maylin,Reed Rouleau Marketing & Media,,"6830 NE Bothell Way, Suite C",Kenmore,WA,98028,www.reedrouleau.com,,
Amp Harrell,ReMax Northwest,,"15435 Main Street",Duvall,WA,98019,joeyduwehomes.com,,
House,Repipe Specialists,(206) 900-9080,100 W. Andover Park West,Tukwila,WA,98188,https://repipewashington.com/,Construction,info@1-800-repiping.com
Amp Harrell,Revolve Food & Wine,,,Bothell,WA,,,Restaurant,
Maury Eskenazi,Rhodes River Ranch,(360) 474-8313,22016 Entsminger Road,Arlington,WA,98223,therestaurantatrhodesriverranch.com,,info@therestaurantatrhodesriverranch.com
Deanna Sigel,Rhododendrons Direct,,432 Calapooia St. SW,Albany,OR,97321,rhododentronsdirect.com,,
Chuck Maylin,Rick Merrill Attorney,(425) 259-4972,3625 Colby Ave.,Everett,WA,98201,www.rickmerrillattorney.com,,info@rickmerrillattorney.com
Amp Harrell,Riverside Roofing,,"10420 E Riverside Dr",Bothell,WA,98011,https://www.riversideroofingllc.com/,,
Deanna Sigel,Robbins and Co,,,,WA,,https://www.robbinsandco.com/,,
House,Rock It Boy Entertainment,(604) 720-2256,15154 Roper Ave #102,White Rock,BC,V4B2E7,https://www.rockitboy.com/,,
Stitch Mitchell,Rodland Toyota,,6816 Evergreen Way,Everett,WA,98203,www.rodlandtoyota.com,,
Amp Harrell,ROIC Retail Opportunity Investments Corp,,,,,,,Real Estate,
Stitch Mitchell,Roof Maxx,,1333 134th Drive SE.,Snohomish,WA,98290,roofmaxx.com,,
Amp Harrell,RoofWorks Northwest,(206) 718-4931,12910 16th St NE,Lake Stevens,WA,98258,http://www.roofworksnorthwest.com/,Construction,
Amp Harrell,Room to Craft,,18215 BOTHELL WAY NE,Bothell,WA,98011,roomtocraft.com,,
House,Roy Robinson Chevrolet Subaru,,"6616 35th Ave NE",Marysville,WA,98271,,,
House,Roy Robinson RVd,,6616 35th Ave NE,Marysville,WA,98271,,,
House,Roy Robinson Subaru,(360) 659-6237,6001 33rd Av NE,Marysville,WA,98271,,,
Amp Harrell,Rugs Galore,(800) 275-7020,116 Ave D,Snohomish,WA,98290,rugsgalore.com,Retail / Consumer Goods,
Deanna Sigel,Rushmore Tax,,"1094 State Ave,",Marysville,WA,98270,http://www.rushmoretax.com/,,
Maury Eskenazi,RV Country,,509A Suzanne Lane,Mount Vernon,WA,,http://www.rvcountry.com/,,
House,Ryder,(360) 651-2364,3919 88th st n.e.,Marysville,WA,98270,https://ryder.com/,,info@ryder.com
Amp Harrell,S & S Roofing,,104 S. West Ave,Arlington,WA,98223,http://www.sandsroofingllc.com/,Construction,
Stitch Mitchell,Salish Sea Brewing Company,,"518 Dayton Street, Suite 104",Edmonds,WA,98020,salishbrewing.com,,
Stitch Mitchell,Salish Sea Brewing Company,,"518 Dayton Street, Suite 104",Edmonds,WA,98020,salishbrewing.com,,
Stitch Mitchell,Salish Sea Brewing Company,,"518 Dayton Street, Suite 104",Edmonds,WA,98020,salishbrewing.com,,
Maury Eskenazi,Sams Cats and Dogs,(360) 805-5060,20016 Old Owen Road,Monroe,WA,98272,http://www.samscatsanddogs.com/,,
Chuck Maylin,Sand Bags To Go,(866) 550-2247,1429 Ave D,Snohomish,WA,98290,www.sandbagstogo.com,Construction,SANDBAGSTOGO@GMAIL.COM
Stitch Mitchell,Sanders Law Group in Edmonds,,152 3rd Avenue South Suite 101,Edmonds,WA,98020,https://sanderslawgroupnw.com/,,
House,Screen Printing Northwest,(425) 303-3381,2526 Colby Ave.,Everett,WA,,www.screenprintingnw.com,,info@screenprintingnw.com
Amp Harrell,Seabrook,(360) 276-0099,4275 SR 109,Pacific Beach,WA,98571,seabrookwa.com,Travel / Hospitality,info@seabrookwa.com
Maury Eskenazi,Sears Hometown Stores,(360) 653-3437,1340 State Avenue,Marysville,WA,98271,http://www.searshometownstores.com/locations/marysville-wa,,ds3498@shos.com
Amp Harrell,Seatown Electric,(425) 249-2909,3431 Broadway,"Everett, WA 98201",WA,,www.seatownservices.com,,info@seatownservices.com
House,Seattle Children's Hospital,,4800 Sand Point Wy NE,Seattle,WA,98105,www.seattlechildrens.org,,
House,Semiahmoo,(855) 917-3767,9565 Semiahmoo Pkwy,Blaine,WA,98230,www.semiahmoo.com,,
Amp Harrell,Senior Solutions Group,,,Yakima,WA,,https://seniorsolutions.net/,,
Stitch Mitchell,Servpro of Edmonds,,19409 86th Ave,West Edmonds,WA,98026,https://www.servproedmonds.com/,,
Chuck Maylin,Sesac,(615) 320-0055,35 Music Square East,Nashville,TN,37203,www.sesac.com,,
Chuck Maylin,Shack Art Center,(425) 259-5050,2921 Hoyt Avenue,Everett,WA,98201,,,artsinfo@schack
Amp Harrell,"Shadow's Handyman Services, LLC",(425) 392-8394,,Lake Stevens,WA,98258,https://shadowshandymanservices.com/,,
Deanna Sigel,SHAG,,,,WA,,housing4seniors.com,,
Stitch Mitchell,Shannon Brooks Realtor,,1511 26th St.,Everett,WA,98201,shannonbrooks.withwre.com,,
Deanna Sigel,Shed Gal (Graceland Portable Buildings),,,,WA,,shedgal.com,,
House,Sherwood Community Services,(425) 248-3018,402 91st Ave. N.E.,Everett,WA,98205,www.sherwoodcs.org,,
Deanna Sigel,Shoreline Film Office,,17500 Midvale Ave N,Shoreline,WA,98133,http://www.shorelinewa.gov/business/shoreline-film-office,,
Stitch Mitchell,"Shoreline, City of",,17500 Midvale Ave N,Shoreline,WA,98133-4905,www.shorelinewa.gov,,
Amp Harrell,SICBA,,15571-A Peterson Road,Burlington,WA,98233,https://sicba.org,,
Amp Harrell,Silverhawk Wealth Management,(480) 296-0200,1601 5th Ave,Seattle,WA,98101,https://silverhawkfinancial.com/,Financial / Insurance,info@silverhawkfinancial.com
Chuck Maylin,Sisadmin,(425) 482-1919,131 Cedar Ave,Snohomish,WA,98290,www.sisadmin.com,,Info@sisadmin.com
Amp Harrell,Siskun Power Equipment,(425) 252-3688,2805 Broadway,Everett,WA,98201,siskun.com,,
House,Six 8 Clothing LLC,,5803 176th SR SE,Snohomish,WA,98291,https://six8clothingcompany.com/,,
Maury Eskenazi,Skagit Arms,,895 Nevitt Rd,Burlington,WA,,http://www.skagitarms.com/,,
Maury Eskenazi,Skagit County Department of Public health,,"700 South Second, Rm. 301",Mount Vernon,WA,98273,www.skagitcounty.net/Departments/HealthDiseases/dept.htm,,
House,Skagit County Dept of Emergency Mngmt,,"300 S 1st St, A",Mount Vernon,WA,98273,https://www.skagitcounty.net/Departments/EmergencyManagement/main.htm,,
House,Skagit County Dept of Emergency Mngmt,(360) 416-1850,2911 E College Way,Mount Vernon,WA,98273,https://www.skagitcounty.net/Departments/EmergencyManagement/main.htm,,dem@co.skagit.wa.us
House,Skagit Regional Health,,1415 E. Kincaid,Mount Vernon,WA,98273,,,
Amp Harrell,Skagit River Brewery,(360) 336-2884,404 S Third St,Mount Vernon,WA,98273,http://www.skagitbrew.com/,,
Amp Harrell,Skagit Shooting Range,,1340 Bouslog Rd,Burlington,WA,98233,www.skagitshootingrange.com,,
House,Skagit State Bank,,301 E.Fairhaven Ave,Burlington,WA,98233,www.skagitbank.com,,
Maury Eskenazi,Skagit Valley Casino,(866) 985-3340,5984 N Darrk Lane,Bow,WA,98232,www.theskagit.com,,comments@theskagit.com
Deanna Sigel,Skagit Valley Gardens,(360) 424-6760,18923 Peter Johnson Rd,Mount Vernon,WA,98273,http://www.skagitvalleygardens.com/,Gardening / Landscaping,glorenz35@gmail.com
House,Skagit Valley Tulip Festival,(360) 428-5959,PO Box 1784,Mount Vernon,WA,98273,,,
Stitch Mitchell,Skip Rock Distillers,,104 Ave C Suite A,Snohomish,WA,98290,skiprockdistillers.com,,
Chuck Maylin,Skotdal Real Estate,(425) 252-5400,"2707 Colby Avenue, Suite 1200",Everett,WA,98201,www.skotdal.com,,
Deanna Sigel,Sky Nursery,,,,WA,,http://www.skynursery.com/,,
Chuck Maylin,Sky Rocket Radio,(601) 503-0933,196 Mandarin Dr,Brandon,MS,39047,www.skyrocketradio.com,,jim@skyrocketradio.com
Deanna Sigel,Skyline Properties,,50 116th Ave SE Ste 120,Bellevue,WA,98004,https://www.skylineproperties.com/royaforghani,Real Estate,
Stitch Mitchell,Skyview Networks,,14605 North Airport Drive #370,Scottsdale,AZ,85260,skyviewsatellite.com,,
Amp Harrell,Slabjack NW,,"700 NW GILMAN BLVD, STE E103B",Issaquah,WA,98027,http://www.1866slabjack.com/,,
Amp Harrell,Slater All Lines Insurance School,,3717 - 196th Street SW #214,Lynnwood,WA,98036,slaterinsuranceschool.com,,
Stitch Mitchell,SLB Marketing Consultants,,,Maple Valley,WA,,http://slbmarketing.net,,
Stitch Mitchell,Slim Me 1 LLC,,123 N. Centennial Way Suite 240,Mesa,AZ,85201,http://slimme1.com/,,
Chuck Maylin,Smith Brothers,,,Seattle,WA,,https://smithbrothersfarms.com,,
Maury Eskenazi,Smokey Point Behavioral Hospital,(844) 202-5555,3955 156th Street Northeast,Marysville,WA,98271,http://smokeypointbehavioralhospital.com/,,info@smokeypointbehavorialhospital.com
Amp Harrell,Smokey Point Concrete,,"23315 Dike Road",Arlington,WA,98223,http://www.smokeypointconcrete.com/,,
Stitch Mitchell,SnoCo Western Games Assn,,,,WA,,scwga.com,,
Maury Eskenazi,Snohomish & Island County Labor Board,,3000 Rockefeller,Everett,WA,,http://www.snolabor.org/index.html,,
House,Snohomish Aquatic Center,(360) 568-8030,516 Maple AVE,Snohomish,WA,98290,https://www.sno.wednet.edu/Domain/24,,
House,Snohomish Beer Festival,,,,,,,,
Chuck Maylin,Snohomish Conservation District,,528 91st Ave NE,Lake Stevens,WA,98258,www.snohomishcd.org,,
Stitch Mitchell,Snohomish Co-op,(360) 568-2104,168 Lincoln Ave,Snohomish,WA,98290,http://www.snohomishcoop.com/,,
Chuck Maylin,Snohomish County,,3000 Rockefeller Ave.,Everett,WA,98201,www.snohomishcountywa.gov/182/Executive,,
House,Snohomish County Camano Association of Realtors,,"3201 Broadway, Suite E",Everett,WA,98201,www.sccar.com,,
Chuck Maylin,Snohomish County Dept of Emergency Management,,720 80th Street SW,Everett,WA,98203,,,
Maury Eskenazi,Snohomish County DUI & Target Zero Task Force,,3000 Rockefeller Ave. M/S 606,Olympia,WA,98501,,,
House,Snohomish County Fire District 21,,12131 228th St NE,Arlington,WA,98223,,,
House,Snohomish County Human Services,,3000 Rockefellar MS 305,Everett,WA,,https://www.snohomishcountywa.gov/191/Human-Services,,
Stitch Mitchell,Snohomish County Music Project,,1702 Pacific Avenue,Everett,WA,98201,scmusicproject.org,,
Stitch Mitchell,Snohomish County Public Works,,"3000 Rockefeller Av",Everett,WA,98201,www.snohomishcountywa.gov,,
Stitch Mitchell,Snohomish County Public Works,,"3000 Rockefeller Av",Everett,WA,98201,www.snohomishcountywa.gov,,
Stitch Mitchell,Snohomish County Public Works,,"3000 Rockefeller Av",Everett,WA,98201,www.snohomishcountywa.gov,,
Stitch Mitchell,Snohomish County Public Works,,"3000 Rockefeller Av",Everett,WA,98201,www.snohomishcountywa.gov,,
Stitch Mitchell,Snohomish County Public Works,,"3000 Rockefeller Av",Everett,WA,98201,www.snohomishcountywa.gov,,
Deanna Sigel,Snohomish County PUD,(877) 783-1000,2320 California Street,Everett,WA,98206-1107,http://www.snopud.com/,,info@snopud.com
Stitch Mitchell,Snohomish County Republican Party,,514 State Avenue Suite 109,Marysville,WA,98270,snocogop.com,,
Stitch Mitchell,Snohomish County Republican Party,,3115 Oakes Ave,Everett,WA,98201,snocogop.com,,
Stitch Mitchell,Snohomish County Solid Waste,,3000 Rockefeller Avenue,Everett,WA,98201,snohomishcountywa.gov,,
Amp Harrell,Snohomish Farmers Market,,P.O. Box 1994,Snohomish,WA,98290,https://www.snohomishfarmersmarket.org/about-us,,
Chuck Maylin,Snohomish Health District,(425) 339-5250,3020 Rucker,Everett,WA,98201,www.snohd.org,,
Stitch Mitchell,Snohomish Monroe CO-OP,(360) 568-2104,168 Lincoln Ave,Snohomish,WA,98290,www.snohomishcoop.com,,info@snohomishcoop.com
Stitch Mitchell,Snohomish Monroe CO-OP,,,,WA,,,,
Stitch Mitchell,Snohomish Senior Center,,506 Fourth Street,Snohomish,WA,98290,snohomishcenter.org,,
Stitch Mitchell,Snohomish Valley Golf Center,,8511 Marsh Road,Snohomish,WA,98296,http://www.snohomishvalleygolfcenter.com/,,
Amp Harrell,Sno-Isle Libraries,,,Marysville,WA,,http://www.sno-isle.org/locations/,,
Amp Harrell,Sno-King Carpet and Upholstery Cleaning,,,,WA,,snokingcarpets.com,,
House,Snug Harbor Resort,(360) 378-4762,1997 Mitchell Bay Rd.,Friday Harbor,WA,98250,http://www.snugresort.com/,,
House,Sonitrol,,2221 California st,Everett,WA,98201,https://www.sonitrolpacific.com/,,
Amp Harrell,Sound Irrigation,(206) 817-5511,1113 5th Ave. S.,Edmonds,WA,98020,https://soundirrigation.com/,Gardening / Landscaping,
Amp Harrell,Sound Legal Solutions,,,,WA,,,,
House,Sound Pain Solutions,(206) 508-4463,6603 220th Street SW,Mountlake Terrace,WA,98043,https://soundpainsolutions.com/,,info@soundpainsolutions.com
Chuck Maylin,Sound Publishing - Herald,,1800 41st St,Everett,WA,98203,www.heraldnet.com,,
Deanna Sigel,Sound Seismic,,7543 15th Avenue NW,Seattle,WA,98117,www.soundseismic.com,,
Deanna Sigel,Sound Storage of Mill Creek,,4012 148th St SE,Mill Creek,WA,98012,westcoastselfstorage.com,,
Amp Harrell,Sound to Summit Brewing,(425) 252-3688,1830 Bickford AVE Unit 109,Snohomish,WA,98209,,,
Stitch Mitchell,Soundbitesdelivers.com,,7343 E Marginal Way S,Seattle,WA,98117,soundbitesdelivers.com,,
Stitch Mitchell,Soundview School,,6515 196th St. SW,Lynnwood,WA,98036,soundview.org,,
Amp Harrell,Speedway Chevrolet,(866) 647-1030,16957 W. Main St.,Monroe,WA,98272,speedwaychevrolet.com,,
Amp Harrell,Sportsman's Warehouse,,9577 Ridgetop Blvd NW,Silverdale,WA,,www.sportsmanswarehouse.com,,
Maury Eskenazi,Sprague Pest Solutions,,710 Ash Ave,Marysville,WA,98270,spraguepest.com,,info@spraguepest.com
Stitch Mitchell,Square Foot LLC,(360) 227-8750,3922 88Tth St. NE.,Marysville,WA,98270,squarefootllcconstruction.com,Construction,
Deanna Sigel,Stanwood Chamber of Commerce,,8725 271st St NW,Stanwood,WA,98292,https://stanwoodchamber.org/,,
Deanna Sigel,Stanwood Grill,(425) 252-4021,8628 271st NW,Stanwood,WA,,,,
Amp Harrell,Star Rentals,,12505 Mukilteo Speedway,Everett,WA,98087,http://www.starrentals.com/,,
Chuck Maylin,StateNets,,,,,,www.statenets.com,,
House,Steenman Associates,,2811 245th Pl. S.E.,Sammamish,WA,98075,www.steenmanassociates.com,,
Maury Eskenazi,Steins Taphouse and Mini Golf,(425) 350-8021,"20308 77th Ave NE Suite B,",Arlington,WA,98223,www.32beersontap.com,Restaurant,steinstaphousellc@gmail.com
Stitch Mitchell,Steve's Plumbing,,2125 196th St SW Suite 126,Lynnwood,WA,98036,tiredofdealingwithdrips.com,,
House,Stihl Northwest,,321 North Main Street,Cape Girardeau,MO,63701,https://www.stihlusa.com/,,
Stitch Mitchell,Stillaguamish Tribe,,3322 236th St NE,Arlington,WA,98223,stillaguamish.com,,
Maury Eskenazi,Stilly Valley Chamber of Commerce,(360) 659-5453,526 N West Ave. PMB # 36,Arlington,WA,98223,https://www.stillyvalleychamber.com/,,info@stillyvalleychamber.com
Stitch Mitchell,Stoney Creek Outfitters,(360) 863-9300,19693 SR 2,Monroe,WA,98272,,,stoneycreekbilling@yahoo.com
Maury Eskenazi,Stop Claims Corp,(425) 238-0106,4202 Hoyt Ave Ste B,Everett,WA,98203,stopclaims.com,,info@stopclaims.com
Amp Harrell,Strands Home Furnishings,,327 Butler Avenue,Monroe,WA,98272,www.strandshomefurnishings.com,,
Stitch Mitchell,strategy3degrees.com,,621 Pacific Ave Suite 107,Tacoma,WA,98402,strategy3degrees.com,,
Deanna Sigel,Stratocent Technologies,(206) 429-8760,8618 N183rd St,Kirkland,WA,98034,https://www.stratocent.com/,Computers / Technology,jim@stratocent.com
House,Summit Everett,(425) 349-0131,2820 Rucker Avenue,Everett,WA,98201,summiteverett.com,,
House,Sun Mountain Lodge,,209 Castle Ave.,Winthrop,WA,98862,sunmountainlodge.com,,
Deanna Sigel,Sunrise Pest Management,,"1840 130th Ave NE Ste 13,",Bellevue,WA,,sunrisepest.com,,
Stitch Mitchell,Supercharge Marketing,,,,WA,,https://superchargemarketing.com/,,
Maury Eskenazi,Supra Pro Wakeboard Tour,(407) 628-4802,"460 N. Orlando Ave.,","Winter Park,",FL,32789,www.bonnier.com,,info@bonniercorp.com
Amp Harrell,SweetHome Snohomish Renovations,(425) 357-7961,,Snohomish,WA,98290,https://sweethomesnohomishrenovations.com/,Construction,
Amp Harrell,Swinomish Casino and Lodge,(360) 293-2691,12885 Casino Drive,Anacortes,WA,98221-8607,https://www.swinomishcasinoandlodge.com/,Casino / Gambling,
Maury Eskenazi,Swire Coca Cola,,1150 124th AVE NE,Bellevue WA,WA,98005,https://www.swirecc.com/,,
Deanna Sigel,Symmetria Integrative Medical,,9528 State Avenue,Marysville,WA,98270,www.symmetriamedical.com,,
Deanna Sigel,T Mobile,,2920 SE 38th Street.,Bellevue,WA,98006,t-mobile.com,,
House,Tacher Radio Reps,,2300 130TH AVE NE STE 104,Bellevue,WA,98005,tacherradioreps.com,,greg.tacher@tacherradioreps.com
Maury Eskenazi,Target Zero Kitsap,,,,WA,,,,
House,Taylor's Plumbing Solutions,(425) 330-1230,P.O. Box 1372,Lake Stevens,WA,98258,www.taylorsplumbingsolutions.com/,,
Maury Eskenazi,Team Nelson Earthwork and Utilities,,21820 87th ave se,Woodinville,WA,98072,wwwteamnelsoninc.com,,
Amp Harrell,Teamsters Local 38,,2601 Everett Ave,Everett,WA,98201,http://www.teamsters38.org/,,
Maury Eskenazi,The Colour Coach Mindful Design and Consultation,(206) 478-6159,,Everett,WA,98201,/the-colour-coach.com,,artistherapy@gmail.com
Amp Harrell,The Door House,,2710 Hewitt Ave.,Everett,WA,98201,https://thebestdoorhouse.com/,,
House,The Growler Guys,(206) 522-2337,8500 Lake City Way NE,Seattle,WA,98115,https://www.thegrowlerguys.com/locations/seattle-northeast/,,
Deanna Sigel,The Home Center Stanwood Furniture,,"10008 270th St NW,",Stanwood,WA,982892,https://www.thehomecenters.com/,,
Amp Harrell,The Law Office of J. Michael Gallagher,(360) 794-7531,1203 West Main Street,Monroe,WA,,http://dontbeaweekendparent.com/,,
Deanna Sigel,The Learning Experience,,"17512 Bothell Everett Hwy,",Bothell,WA,98012,thelearningexperience.com,,
House,The Outlet Shoppes at Burlington,(360) 757-3548,448 Fashion Way,Burlington,WA,98223,https://www.theoutletshoppesatburlington.com,,
Deanna Sigel,The Picnic Pantry,,"8706 271st Street NW,","Stanwood,",WA,98292,www.thepicnicpantry.com,,
Stitch Mitchell,The Spur Festival,,P.O Box 31816,Bellingham,WA,98228,thespurfestival.com,,
House,Three Kees Cider Company,,22831 Woods Creek Rd,Snohomish,WA,98290,http://www.threekeescider.com/,,
House,Thrive Community Fitness - Monroe,,118 N Lewis St. #104,Monroe,WA,98019,http://www.thrivecf.com/monroe-home.aspx,,
Amp Harrell,Thryv,,,,WA,,https://emp.thryv.com/site/TimDennis,,
Amp Harrell,Tila Mortgage,,,Bothell,WA,,tilamortgage.com,,
Amp Harrell,Tilth Alliance,,4649 Sunnyside Ave N,Seattle,WA,98103,,,
Amp Harrell,Tinte Cellars,,19495 144th Ave NE,Woodinville,WA,98072,,,
House,Toggles Bottle Shop,,1420 Hewitt Ave,Everett,WA,98201,,,
Amp Harrell,Tony V's Garage Saloon & Eatery,,1716 Hewitt Ave,Everett,WA,98201,,,
Amp Harrell,Touchdown Delivery,,,Stanwood,WA,,,,
House,Travel Time Inc.,,7309 Newport Dr.,Arlington,WA,98223,,,
Chuck Maylin,Trico,(360) 757-2373,15066 Josh Wilson Road,Burlington,WA,98233,www.tricocompanies.com,,info@tricocompanies.com
House,Trident Plumbing And Drain Cleaning,(425) 321-6043,14751 W Kelsey St,Monroe,WA,98272,www.tridentplumbinganddrain.com,Construction,
Amp Harrell,Trident Seafoods,(206) 783-3818,5303 SHILSHOLE AVE NW,Seattle,WA,98107,ThePopUpFishShop.com,Food,ffinfo@theforkandfin.com
Amp Harrell,Tubs Gourmet Subs,(425) 741-9800,4400 168th St SW,Lynnwood,WA,98037,tubssubs.com,Food,info@tubssubs.com
Stitch Mitchell,Tulalip Bingo,,10200 Quil Ceda Blvd.,Tulalip,WA,98271,,,
Stitch Mitchell,Tulalip Boys and Girls Club,,,,WA,,https://www.tulaliptribes-nsn.gov/Residents/BoysAndGirlsClub,,
Stitch Mitchell,Tulalip Resort Casino,,10200 Quilceda Blvd.,Tulalip,WA,98271,www.tulalipresortcasino.com,,
Deanna Sigel,Two Men and A Truck,(425) 336-0856,"607 SE Everett Mall Way,",Everett,WA,98208,twomenandatruck.com,Transportation,
Amp Harrell,University of Washington Bothell,,"18115 Campus Way NE",Bothell,WA,98011,https://www.uwb.edu/community-engagement,,
Stitch Mitchell,Upper Left Beer Fest,,,,WA,,www.fizzeventsnw.com,,
Deanna Sigel,Uppercase Bookshop,(360) 217-8521,1010 Second Street,Snohomish,WA,98290,https://www.uppercasebookshop.com/,,
Deanna Sigel,Utility Notification Center,(503) 232-1987,305 N.E. 102nd Avenue,Portland,OR,97220,,,gregsnyder@occinc.com
Amp Harrell,"Valley Organic Deli, The",,2805 Colby Avenue,Everett,WA,98201,www.valleyorganicdeli.com,,
Amp Harrell,Valpak of Greater Seattle,,23607 Hwy 99,Edmonds,WA,98026,https://www.valpak.com/advertise/local/seattle,,
Amp Harrell,VanderBeken Remodel & Repair,(425) 870-8123,,,,,http://www.vanderbeken-remodel.com/,Construction,info@vanderbeken-remodel.com
House,Verdant Health Commission,,4710 196th St. SW,Lynnwood,WA,98036,http://verdanthealth.org/,,
Stitch Mitchell,VFW Old Guard Post 2100,,2711 Oakes Avenue,Everett,WA,98201,vfwpost2100.org,,
Stitch Mitchell,VFW Post 2554,,"605 First Street",Sultan,WA,98294,sultanvfw2554.org,,
Stitch Mitchell,VFW Post 9417 Martin-Osterholtz Post,,"301 3rd St",Gold Bar,WA,98251-9277,https://www.facebook.com/GBVFWPOST9417/,,
Chuck Maylin,Viking Construction Group,(425) 286-8131,2609 Wetmore Ave,Everett,WA,98201,www.vikingcg.net,Construction,
Stitch Mitchell,Villa Insurance Group,,18910 28th Ave. W. Ste. 201,Lynnwood,WA,98036,https://www.villainsurancegroup.com/,,
Stitch Mitchell,Village Community Services,,"3210 Smokey Point Drive, Suite 200",Arlington,WA,98223,villagecommunitysvcs.org,,
Stitch Mitchell,Village Concepts,,909 South 336th St. Suite 200,Federal Way,WA,98003,villageconcepts.com,,
Deanna Sigel,Village Theatre - Everett Performing Arts Center,(425) 257-8600,2710 Wetmore Avenue,Everett,WA,98201-3552,https://www.villagetheatre.org/everett/index.php,,boxofficeeverett@villagetheatre.org
House,Visiting Angels,,2532 Wetmore Ave,Everett,WA,98201,https://www.visitingangels.com/,,
Amp Harrell,Volunteers of America WW,,2802 Broadway Av,Everett,WA,98206,www.voaww.org,,
Stitch Mitchell,W.S.C. Homes,,,,WA,,wschomesinc.com,,
Chuck Maylin,Wagner Jewelers,(360) 653-8200,9611 State Ave # E,Marysville,WA,98270,http://www.wagnerjewelers.net/,,info@wagnerjewelers.net
Chuck Maylin,Walthew Law Firm - Everett,(206) 203-9246,3000 1st Avenue,Seattle,WA,98121,www.walthew.com,,info@walthew.com
House,Warm Beach - The Lights of Christmas,,20800 Marine Dr,Stanwood,WA,98292,http://www.thelightsofchristmas.com/,,
Stitch Mitchell,Washington Beer Commission,,1501 North 200th Street Suite 111,Shoreline,WA,98133,washingtonbeer.com,,
Stitch Mitchell,Washington Dept. of Ecology,,P.O. Box 47600,Olympia,WA,98504,ecy.wa.gov,,
Deanna Sigel,Washington Energy Services,,2800 Thorndyke Ave W,Seattle,WA,98199,,,
Tom Lafferty,Washington Festivals & Events Association,(360) 441-7190,1015 Georgiana St,Port Angeles,WA,98362,wfea.org,Entertainment,info@wfea.org
Maury Eskenazi,Washington Pipe Trades,,,,WA,,washingtonpipetrades.org,,
House,Washington State Dept Of Corrections-Monroe,,16550 177th Ave. S.E.,Monroe,WA,98272,http://www.doc.wa.gov,,
Chuck Maylin,Washington State Fair,,110 9th Ave SW,Puyallup,WA,98371,http://www.thefair.com/,,
Amp Harrell,Washington State Office of Financial Management,,P.O. Box 43113,Olympia,WA,98504,https://www.ofm.wa.gov/,,
Chuck Maylin,Washington State University - Everett,,915 N Broadway,Everett,WA,98201,http://everett.wsu.edu/contact/,,
House,Washington Tractor,(425) 334-4048,3305 Bickford Ave.,Snohomish,WA,98290,https://www.washingtontractor.com/map-and-directions-dealership--hours-snohomish,Automotive/Aerospace,
Maury Eskenazi,Washington Tribes,,,,WA,,,,
Amp Harrell,Washington's Lottery,,PO Box 43000,Olympia,WA,98504,https://www.walottery.com/,,
House,Waste Management NorthWest,(800) 592-9995,P.O.Box 12070,Mill Creek,WA,98082,http://www.wmnorthwest.com/ssnohomishcounty/index.html,,
Deanna Sigel,Wave Broadband,,401 Kirkland Place,Kirkland,WA,,wavebroadband.com,,
Deanna Sigel,Wave Business,(844) 910-8519,401 Parkplace Center,Kirkland,WA,98033,www.wavebusiness.com,Communication,
Deanna Sigel,We Honey Do,,10600 Woodinville Drive,Bothell,WA,98011,wehoneydo.com,,
Chuck Maylin,Welcome Magazine - Snohomish County,(425) 280-9569,,Mukilteo,WA,98275,www.welcomemagsnoho.com,Publishing,editor@welcomemagsnoho.cm
House,West Coast Armory North,(425) 265-7143,11714 Airport Rd,Everett,WA,98204,http://www.westcoastarmorynorth.com/,,
Deanna Sigel,West Coast Plumbing,,7419 204th st NE,Arlington,WA,98223,,,
Amp Harrell,Western Washington Medical Group,,1728 W. Marine View Drive,Everett,WA,98201,www.wwmedgroup.com,,
House,Westlake Promotions Inc,,PO Box 12392,Mill Creek,WA,98082,www.westlakepromo.com,,
Maury Eskenazi,Whidbey Island Vacation Rentals,,5565 Lotto Ave,Freeland,WA,,whidbeyvacation.com,,
House,Whistle Stop Sweet Shop,(360) 322-7432,1508 3rd St,Marysville,WA,98270,www.whistlestopsweetshop.com,Food,wstopofmsvl@hotmail.com
Amp Harrell,Whistle Workwear,,10121 Evergreen Way #30,Everett,WA,98204,www.whistleworkwear.com,,
House,White Rabbit,,15928 HWY 99 South,Lynnwood,WA,98087,WhiteRabbitCannabis.com,,
Amp Harrell,Whitehorse Saloon,(360) 435-3122,304 N Olympic Avenue,Arlington,WA,98223,facebook.com/Whitehorse-Saloon-115568388465981/,Beverages,
Deanna Sigel,Whitewall Brewing Company,(360) 454-0464,14524 Smokey Point Blvd Suite 1,Marysville,WA,98271,https://www.whitewallbrewing.com/,,whitewall@whitewallbrewing.com
House,Whitley Evergreen,,14219 Smokey Point Blvd.,Marysville,WA,98271,www.whitleyman.com,,
Chuck Maylin,Wide Orbit,,601 Canyon Dr,Coppell,TX75019,,www.wideorbit.com,,
Deanna Sigel,Wilcox Family Farms,(360) 458-7774,"40400 Harts Lake Valley Rd,",roy,WA,98580,,,
Deanna Sigel,Wild Alaskan Company,,,,WA,,https://wildalaskancompany.com,,sockeye@wildalaskancompany.com
Deanna Sigel,Wild Waves,,36201 Enchanted Parkway S,Federal Way,WA,98003,https://www.wildwaves.com/,,
Amp Harrell,WILLOWS LODGE,,14580 NE 145TH STREET,Woodinville,WA,98072,,,
House,Windermere,,,,WA,,,,
Deanna Sigel,Windermere Mukilteo,(425) 348-5960,12003 Mukilteo Speedway Unit 101,Mukilteo,WA,98055,www.mukilteo.windermere.com,Real Estate,dora@dcarelli.com
Amp Harrell,Woodinville Chamber of Commerce,,14700 148th Ave NE,Woodinville,WA,98072,https://woodinvillechamber.org/,,
Stitch Mitchell,Woodinville Whiskey Company,,14509 Woodinville Redmond Road NE,Woodinville,WA,98072,woodinvillewhiskeyco.com,,
Amp Harrell,Woodinville Wine Country,,14700 148th Ave NE,Woodinville,WA,98072,,,
House,Woodland Park Zoo,,,Seattle,WA,98103,http://www.zoo.org/,,
Stitch Mitchell,Work N' More,,3602 Broadway,Everett,WA,98201,www.worknmore.com,,nfo1@worknmore.com
Stitch Mitchell,Work N' More,(425) 259-0026,3602 Broadway,Everett,WA,98201,worknmore.com,,info1@worknmore.com
Maury Eskenazi,WorkSource,,3201 smith ave suite 413,Everett,WA,98201,,,
House,World Wake Association,,,,,,www.thewwa.com,,info@thewwa.com
House,Wounded Warriors in Action Foundation,,2922 Chester Lane,Caldwell,ID,83605,wwiaf.org,,
Maury Eskenazi,WTSC (Washington Traffic Safety Commission),,621 8th Av Ste 409,Olympia,WA,98504,www.wtsc.wa.gov,,
Deanna Sigel,Yardmaster,(206) 232-9273,"13429 SE 30th St Ste 2,",Bellevue,WA,98005,yardmasterinc.com,,info@yardmasterinc.com
Chuck Maylin,YMCA of Snohomish County,(425) 740-9622,4730 Colby Avenue,Everett,WA,98203,www.ymca-snoco.org,,info@ymca-snoco.org
Amp Harrell,Ziply Fiber,,PO Box 1127,Everett,WA,98206,https://get.ziplyfiber.com/,,
Amp Harrell,ZOOM+Care,(503) 684-8252,24118 Bothell Everett Hwy,Bothell,WA,98021,https://www.zoomcare.com/clinic/zoomcare-bothell,Healthcare / Medical,
