record_manager,company,phone,address1,city,state,zipcode,website,industry,company_email
House,Seattle Children's Hospital,,4800 Sand Point Wy NE,Seattle,WA,98105,www.seattlechildrens.org,,
House,Semiahmoo,(855) 917-3767,9565 Semiahmoo Pkwy,Blaine,WA,98230,www.semiahmoo.com,,
Amp Harrell,Senior Solutions Group,,,Yakima,WA,,https://seniorsolutions.net/,,
Stitch Mitchell,Servpro of Edmonds,,19409 86th Ave,West Edmonds,WA,98026,https://www.servproedmonds.com/,,
Chuck Maylin,Sesac,(615) 320-0055,35 Music Square East,Nashville,TN,37203,www.sesac.com,,
Chuck Maylin,Shack Art Center,(425) 259-5050,2921 Hoyt Avenue,Everett,WA,98201,,,artsinfo@schack
Amp Harrell,"Shadow's Handyman Services, LLC",(425) 392-8394,,Lake Stevens,WA,98258,https://shadowshandymanservices.com/,,
Deanna Sigel,SHAG,,,,WA,,housing4seniors.com,,
Stitch Mitchell,Shannon Brooks Realtor,,1511 26th St.,Everett,WA,98201,shannonbrooks.withwre.com,,
Deanna Sigel,Shed Gal (Graceland Portable Buildings),,,,WA,,shedgal.com,,
House,Sherwood Community Services,(425) 248-3018,402 91st Ave. N.E.,Everett,WA,98205,www.sherwoodcs.org,,
Deanna Sigel,Shoreline Film Office,,17500 Midvale Ave N,Shoreline,WA,98133,http://www.shorelinewa.gov/business/shoreline-film-office,,
Stitch Mitchell,"Shoreline, City of",,17500 Midvale Ave N,Shoreline,WA,98133-4905,www.shorelinewa.gov,,
Amp Harrell,SICBA,,15571-A Peterson Road,Burlington,WA,98233,https://sicba.org,,
Amp Harrell,Silverhawk Wealth Management,(480) 296-0200,1601 5th Ave,Seattle,WA,98101,https://silverhawkfinancial.com/,Financial / Insurance,info@silverhawkfinancial.com
Chuck Maylin,Sisadmin,(425) 482-1919,131 Cedar Ave,Snohomish,WA,98290,www.sisadmin.com,,Info@sisadmin.com
Amp Harrell,Siskun Power Equipment,(425) 252-3688,2805 Broadway,Everett,WA,98201,siskun.com,,
House,Six 8 Clothing LLC,,5803 176th SR SE,Snohomish,WA,98291,https://six8clothingcompany.com/,,
Maury Eskenazi,Skagit Arms,,895 Nevitt Rd,Burlington,WA,,http://www.skagitarms.com/,,
Maury Eskenazi,Skagit County Department of Public health,,"700 South Second, Rm. 301",Mount Vernon,WA,98273,www.skagitcounty.net/Departments/HealthDiseases/dept.htm,,
House,Skagit County Dept of Emergency Mngmt,,"300 S 1st St, A",Mount Vernon,WA,98273,https://www.skagitcounty.net/Departments/EmergencyManagement/main.htm,,
House,Skagit County Dept of Emergency Mngmt,(360) 416-1850,2911 E College Way,Mount Vernon,WA,98273,https://www.skagitcounty.net/Departments/EmergencyManagement/main.htm,,dem@co.skagit.wa.us
House,Skagit Regional Health,,1415 E. Kincaid,Mount Vernon,WA,98273,,,
Amp Harrell,Skagit River Brewery,(360) 336-2884,404 S Third St,Mount Vernon,WA,98273,http://www.skagitbrew.com/,,
Amp Harrell,Skagit Shooting Range,,1340 Bouslog Rd,Burlington,WA,98233,www.skagitshootingrange.com,,
House,Skagit State Bank,,301 E.Fairhaven Ave,Burlington,WA,98233,www.skagitbank.com,,
Maury Eskenazi,Skagit Valley Casino,(866) 985-3340,5984 N Darrk Lane,Bow,WA,98232,www.theskagit.com,,comments@theskagit.com
Deanna Sigel,Skagit Valley Gardens,(360) 424-6760,18923 Peter Johnson Rd,Mount Vernon,WA,98273,http://www.skagitvalleygardens.com/,Gardening / Landscaping,glorenz35@gmail.com
House,Skagit Valley Tulip Festival,(360) 428-5959,PO Box 1784,Mount Vernon,WA,98273,,,
Stitch Mitchell,Skip Rock Distillers,,104 Ave C Suite A,Snohomish,WA,98290,skiprockdistillers.com,,
Chuck Maylin,Skotdal Real Estate,(425) 252-5400,"2707 Colby Avenue, Suite 1200",Everett,WA,98201,www.skotdal.com,,
Deanna Sigel,Sky Nursery,,,,WA,,http://www.skynursery.com/,,
Chuck Maylin,Sky Rocket Radio,(601) 503-0933,196 Mandarin Dr,Brandon,MS,39047,www.skyrocketradio.com,,jim@skyrocketradio.com
Deanna Sigel,Skyline Properties,,50 116th Ave SE Ste 120,Bellevue,WA,98004,https://www.skylineproperties.com/royaforghani,Real Estate,
Stitch Mitchell,Skyview Networks,,14605 North Airport Drive #370,Scottsdale,AZ,85260,skyviewsatellite.com,,
Amp Harrell,Slabjack NW,,"700 NW GILMAN BLVD, STE E103B",Issaquah,WA,98027,http://www.1866slabjack.com/,,
Amp Harrell,Slater All Lines Insurance School,,3717 - 196th Street SW #214,Lynnwood,WA,98036,slaterinsuranceschool.com,,
Stitch Mitchell,SLB Marketing Consultants,,,Maple Valley,WA,,http://slbmarketing.net,,
Stitch Mitchell,Slim Me 1 LLC,,123 N. Centennial Way Suite 240,Mesa,AZ,85201,http://slimme1.com/,,
Chuck Maylin,Smith Brothers,,,Seattle,WA,,https://smithbrothersfarms.com,,
Maury Eskenazi,Smokey Point Behavioral Hospital,(844) 202-5555,3955 156th Street Northeast,Marysville,WA,98271,http://smokeypointbehavioralhospital.com/,,info@smokeypointbehavorialhospital.com
Amp Harrell,Smokey Point Concrete,,"23315 Dike Road",Arlington,WA,98223,http://www.smokeypointconcrete.com/,,
Stitch Mitchell,SnoCo Western Games Assn,,,,WA,,scwga.com,,
Maury Eskenazi,Snohomish & Island County Labor Board,,3000 Rockefeller,Everett,WA,,http://www.snolabor.org/index.html,,
House,Snohomish Aquatic Center,(360) 568-8030,516 Maple AVE,Snohomish,WA,98290,https://www.sno.wednet.edu/Domain/24,,
House,Snohomish Beer Festival,,,,,,,,
Chuck Maylin,Snohomish Conservation District,,528 91st Ave NE,Lake Stevens,WA,98258,www.snohomishcd.org,,
Stitch Mitchell,Snohomish Co-op,(360) 568-2104,168 Lincoln Ave,Snohomish,WA,98290,http://www.snohomishcoop.com/,,
Chuck Maylin,Snohomish County,,3000 Rockefeller Ave.,Everett,WA,98201,www.snohomishcountywa.gov/182/Executive,,
House,Snohomish County Camano Association of Realtors,,"3201 Broadway, Suite E",Everett,WA,98201,www.sccar.com,,
Chuck Maylin,Snohomish County Dept of Emergency Management,,720 80th Street SW,Everett,WA,98203,,,
Maury Eskenazi,Snohomish County DUI & Target Zero Task Force,,3000 Rockefeller Ave. M/S 606,Olympia,WA,98501,,,
House,Snohomish County Fire District 21,,12131 228th St NE,Arlington,WA,98223,,,
House,Snohomish County Human Services,,3000 Rockefellar MS 305,Everett,WA,,https://www.snohomishcountywa.gov/191/Human-Services,,
Stitch Mitchell,Snohomish County Music Project,,1702 Pacific Avenue,Everett,WA,98201,scmusicproject.org,,
Stitch Mitchell,Snohomish County Public Works,,"3000 Rockefeller Av",Everett,WA,98201,www.snohomishcountywa.gov,,
Stitch Mitchell,Snohomish County Public Works,,"3000 Rockefeller Av",Everett,WA,98201,www.snohomishcountywa.gov,,
Stitch Mitchell,Snohomish County Public Works,,"3000 Rockefeller Av",Everett,WA,98201,www.snohomishcountywa.gov,,
Stitch Mitchell,Snohomish County Public Works,,"3000 Rockefeller Av",Everett,WA,98201,www.snohomishcountywa.gov,,
Stitch Mitchell,Snohomish County Public Works,,"3000 Rockefeller Av",Everett,WA,98201,www.snohomishcountywa.gov,,
Deanna Sigel,Snohomish County PUD,(877) 783-1000,2320 California Street,Everett,WA,98206-1107,http://www.snopud.com/,,info@snopud.com
Stitch Mitchell,Snohomish County Republican Party,,514 State Avenue Suite 109,Marysville,WA,98270,snocogop.com,,
Stitch Mitchell,Snohomish County Republican Party,,3115 Oakes Ave,Everett,WA,98201,snocogop.com,,
Stitch Mitchell,Snohomish County Solid Waste,,3000 Rockefeller Avenue,Everett,WA,98201,snohomishcountywa.gov,,
Amp Harrell,Snohomish Farmers Market,,P.O. Box 1994,Snohomish,WA,98290,https://www.snohomishfarmersmarket.org/about-us,,
Chuck Maylin,Snohomish Health District,(425) 339-5250,3020 Rucker,Everett,WA,98201,www.snohd.org,,
Stitch Mitchell,Snohomish Monroe CO-OP,(360) 568-2104,168 Lincoln Ave,Snohomish,WA,98290,www.snohomishcoop.com,,info@snohomishcoop.com
Stitch Mitchell,Snohomish Monroe CO-OP,,,,WA,,,,
Stitch Mitchell,Snohomish Senior Center,,506 Fourth Street,Snohomish,WA,98290,snohomishcenter.org,,
Stitch Mitchell,Snohomish Valley Golf Center,,8511 Marsh Road,Snohomish,WA,98296,http://www.snohomishvalleygolfcenter.com/,,
Amp Harrell,Sno-Isle Libraries,,,Marysville,WA,,http://www.sno-isle.org/locations/,,
Amp Harrell,Sno-King Carpet and Upholstery Cleaning,,,,WA,,snokingcarpets.com,,
House,Snug Harbor Resort,(360) 378-4762,1997 Mitchell Bay Rd.,Friday Harbor,WA,98250,http://www.snugresort.com/,,
House,Sonitrol,,2221 California st,Everett,WA,98201,https://www.sonitrolpacific.com/,,
Amp Harrell,Sound Irrigation,(206) 817-5511,1113 5th Ave. S.,Edmonds,WA,98020,https://soundirrigation.com/,Gardening / Landscaping,
Amp Harrell,Sound Legal Solutions,,,,WA,,,,
House,Sound Pain Solutions,(206) 508-4463,6603 220th Street SW,Mountlake Terrace,WA,98043,https://soundpainsolutions.com/,,info@soundpainsolutions.com
Chuck Maylin,Sound Publishing - Herald,,1800 41st St,Everett,WA,98203,www.heraldnet.com,,
Deanna Sigel,Sound Seismic,,7543 15th Avenue NW,Seattle,WA,98117,www.soundseismic.com,,
Deanna Sigel,Sound Storage of Mill Creek,,4012 148th St SE,Mill Creek,WA,98012,westcoastselfstorage.com,,
Amp Harrell,Sound to Summit Brewing,(425) 252-3688,1830 Bickford AVE Unit 109,Snohomish,WA,98209,,,
Stitch Mitchell,Soundbitesdelivers.com,,7343 E Marginal Way S,Seattle,WA,98117,soundbitesdelivers.com,,
Stitch Mitchell,Soundview School,,6515 196th St. SW,Lynnwood,WA,98036,soundview.org,,
Amp Harrell,Speedway Chevrolet,(866) 647-1030,16957 W. Main St.,Monroe,WA,98272,speedwaychevrolet.com,,
Amp Harrell,Sportsman's Warehouse,,9577 Ridgetop Blvd NW,Silverdale,WA,,www.sportsmanswarehouse.com,,
Maury Eskenazi,Sprague Pest Solutions,,710 Ash Ave,Marysville,WA,98270,spraguepest.com,,info@spraguepest.com
Stitch Mitchell,Square Foot LLC,(360) 227-8750,3922 88Tth St. NE.,Marysville,WA,98270,squarefootllcconstruction.com,Construction,
Deanna Sigel,Stanwood Chamber of Commerce,,8725 271st St NW,Stanwood,WA,98292,https://stanwoodchamber.org/,,
Deanna Sigel,Stanwood Grill,(425) 252-4021,8628 271st NW,Stanwood,WA,,,,
Amp Harrell,Star Rentals,,12505 Mukilteo Speedway,Everett,WA,98087,http://www.starrentals.com/,,
Chuck Maylin,StateNets,,,,,,www.statenets.com,,
House,Steenman Associates,,2811 245th Pl. S.E.,Sammamish,WA,98075,www.steenmanassociates.com,,
Maury Eskenazi,Steins Taphouse and Mini Golf,(425) 350-8021,"20308 77th Ave NE Suite B,",Arlington,WA,98223,www.32beersontap.com,Restaurant,steinstaphousellc@gmail.com
Stitch Mitchell,Steve's Plumbing,,2125 196th St SW Suite 126,Lynnwood,WA,98036,tiredofdealingwithdrips.com,,
House,Stihl Northwest,,321 North Main Street,Cape Girardeau,MO,63701,https://www.stihlusa.com/,,
Stitch Mitchell,Stillaguamish Tribe,,3322 236th St NE,Arlington,WA,98223,stillaguamish.com,,
Maury Eskenazi,Stilly Valley Chamber of Commerce,(360) 659-5453,526 N West Ave. PMB # 36,Arlington,WA,98223,https://www.stillyvalleychamber.com/,,info@stillyvalleychamber.com
Stitch Mitchell,Stoney Creek Outfitters,(360) 863-9300,19693 SR 2,Monroe,WA,98272,,,stoneycreekbilling@yahoo.com
Maury Eskenazi,Stop Claims Corp,(425) 238-0106,4202 Hoyt Ave Ste B,Everett,WA,98203,stopclaims.com,,info@stopclaims.com
Amp Harrell,Strands Home Furnishings,,327 Butler Avenue,Monroe,WA,98272,www.strandshomefurnishings.com,,
