record_manager,company,phone,address1,city,state,zipcode,website,industry,company_email
Chuck Maylin,Axis Roof and Gutter,(360) 653-7663,20932 67th Ave NE,Arlington,WA,98223,http://www.axisroofandgutter.com/index.php,Construction / Remodeling,sales@axisroofandgutter.com
Deanna Sigel,Edward Jones - Desiree Anderson,(360) 563-1042,602 2nd St Suite C,Snohomish,WA,98290,https://www.edwardjones.com/financial-advisor/index.html?CIRN=SYlkWQVuCiRq8zkNuj994xJ2lVIXMcijb3lbqwc2419LPrFQ%2Bglon3CCRmHOU4nr,Banking / Financial,desiree.anderson@edwardjones.con
Deanna Sigel,Flower World,(360) 668-9575,9322 196th Street SE,Snohomish,WA,98296,http://www.flowerworldusa.com/,Gardening / Landscaping,info@flowerworldusa.com
Stitch Mitchell,McClain Insurance Services,(425) 379-9200,10410 19th Ave. SE Suite 101,Everett,WA,98208,www.autohomeboat.com,Insurance,team@autohomeboat.com
Chuck Maylin,Russell & Hill Attorneys,(800) 529-0842,1732 Broadway,Everett,WA,98201,www.russellandhill.com,Attorney / Legal,Info@russellandhill.com
Maury Eskenazi,"Shop  Arlington,Tire ProsThe",(360) 435-9982,315 West Avenue,Arlington,WA,98223,www.theshopofarlington.com,Automotive/Aerospace,ryan@theshopatmissionmotors.com
Chuck Maylin,190 Sunset,(425) 329-3669,190 Sunset Avenue,Edmonds,WA,98020,www.themarket190sunset.com,,info@190sunset.com
Chuck Maylin,1st & Goal dba Century Link Field,,800 Occidental Avenue S.,Seattle,WA,98134,http://www.centurylinkfield.com/firstandgoalhospitality/,Entertainment,
Chuck Maylin,1st Response HVAC,,19231 36th Ave W Suite I,Lynnwood,WA,98036,https://www.1stresponsehvac.com/,,
Chuck Maylin,750ispossible.com,,"13620 61st Ave Se,",Everett,WA,98208,750ispossible.com,,credit@750ispossible.com
Chuck Maylin,7-Eleven,(360) 435-2534,541 WEST AVE,Arlington,WA,98223,https://www.7-eleven.com/,,info@7-eleven.com
Chuck Maylin,A Huge Production,(253) 221-8073,301 S Dunham Avenue,Arlington,WA,98223,https://centennialsk8fest.com/,,info@centennialsk8fest.com
Chuck Maylin,A Taste of Edmonds,,,Everett,WA,,,, 
Chuck Maylin,AA Asphalting LLC,,14720 Puyallup Street,,WA,98390,https://www.aaasphalting.com/,,
Amp Harrell,AAA  Auto,,1745-114th Ave. SE,Bellevue,WA,98004,www.aaawa.com,,
Deanna Sigel,Aalbu Brothers,(425) 252-9751,19129 Smokey Point Blvd,"Arlington,",WA,98223,https://www.aalbubrothers.com/,,frank@aalbubrothers.com
Amp Harrell,AARP Washington State Office,,"18000 International Blvd",Seatac,WA,98188,https://www.aarp.org/,,
Chuck Maylin,Abbey Carpet of Everett,(425) 259-6088,2601 Colby Ave.,Everett,WA,98201,everett.abbeycarpet.com,Retail/Consumer Goods,tomstiger@baysidefloorsupply.com
Chuck Maylin,Abbey Van Dam Carpet & Floor,(360) 653-2210,1060 Cedar Avenue,Marysville,WA,98270,www.abbeyvandamcarpet.com,,
Deanna Sigel,Absolute Plumbing,,222 Anderson Rd.,Mount Vernon,WA,98273,absoluteplumbingwa.com,,
Chuck Maylin,Abundant Faith International Center,(360) 651-8016,13917 Smokey Point BLVD,Marysville,WA,98271,www.drjasonmartin.org,,aficcinbox@outlook.com
Chuck Maylin,Accents & Interiors,(425) 368-1300,19501 144th Ave NE,Woodinville,WA,98072,https://www.accents-interiors.com/,Construction,
Chuck Maylin,Ace Acme Septic Services[=,,17924 67th Ave NE,Arlington,WA,98223,http://www.aceacme.com/contact_us,,
Deanna Sigel,Ace Hardware - Lake Stevens & Everett,(425) 334-7630,303 91st Av NE,Lake  Stevens,WA,98258,,,acehardware14901@live.com
Chuck Maylin,Active Excavator,,17281 Tye St SE,Monroe,WA,98272,activeexcavator.com,,
Deanna Sigel,AdCellerant,,"3461 Ringsby Ct",Denver,CO,80216,support.adcellerant.com,,
House,Admark Services,,2107 Elliott Ave #308,Seattle,WA,98121,www.admarkservices.com,,
Chuck Maylin,Advanced Care Animal Clinic,(360) 651-8000,16820 Smokey Point Blvd Suite 2,Arlington,WA,98223,advancedcareanimalclinic.com,,info@advancedcareanimalclinic.com
Maury Eskenazi,Advanced Skin Therapy,,16404 Smokey Point Blvd Ste 205,Arlington,WA,98223,http://smokeypointskin.com/,,info@smokeypointskin.com
Amp Harrell,Advantaclean of the Eastside,,,,WA,,,,
Chuck Maylin,"Advocates at Driggs, Bills & Day, PLLCho",,2125 Western Ave Ste 500,Seattle,WA,98121,https://www.advocateslaw.com/,,
Amp Harrell,Aesir Meadery,,,,WA,,www.aesirmeadery.com,Beverages,
Maury Eskenazi,Affinity at Arlington,,3721 169th St NE,Arlington,WA,"98223,",affinityatarlington.com,,
Chuck Maylin,Affirm Clinic,,"21701 76th Avenue West",Edmonds,WA,98026,https://www.affirmclinic.com/,,
Chuck Maylin,AHM Brands,,,,,,,,
Chuck Maylin,AIA - American Insure-All,,3323 169th Pl NE Ste. D,Arlington,WA,98223,,,
Amp Harrell,Air Pros Heating & Cooling,,23502 35th Ave W,Lynnwood,WA,,https://www.airproenergy.com/,,
Deanna Sigel,AK AIR,,,,WA,,,,
Deanna Sigel,Alaska Airlines,(206) 433-3200,,Seattle,WA,,https://www.alaskaair.com/,,
Chuck Maylin,Albert Lee Appliance,,18620 33rd Ave W,Lynnwood,WA,98037,,,
Amp Harrell,Alderwood Dental,(425) 771-8861,3400 188th St SW,Lynnwood,WA,98037,alderwooddental.net,Healthcare / Medical,
Chuck Maylin,Alexander Printing,(425) 252-4212,2807 Rockefeller Av,Everett,WA,98201,www.alexanderprint.com,,
Amp Harrell,Alexa's Cafe,,,Bothell,WA,,https://alexascafe.com/,Restaurant,
Deanna Sigel,All City Fence,,36 S Hudson St,Seattle,WA,,https://www.allcityfence.com/,,
Chuck Maylin,All Seasons Spa and Stoves,,131 W. Division St.,Arlington,WA,98223,http://all-seasons-spa-stove.com,,
Chuck Maylin,Allstate,,"8817 Viking Way,",Stanwood,WA,98292,https://agents.allstate.com/pam-fisher-stanwood-wa.html,,
Chuck Maylin,Allstate - Brian Reed,(425) 337-4646,"1327 112th St Se, Ste A1",Everett,WA,98208,https://agents.allstate.com/brian-reed-everett-wa.html,,brianreed@allstate.com
Chuck Maylin,Allstate Insurance - Zach Hubbell,,1349 State Ave Ste A,Marysville,WA,98270,https://agents.allstate.com/zachary-hubbell-marysville-wa.html?utm_source=GMB&utm_medium=Website,,
Chuck Maylin,Allstate of Arlington,(360) 283-4175,7420 204th St NE,Arlington,WA,98223,,Financial / Insurance,
Chuck Maylin,Alpine Specialty Cleaning,,,,WA,,alpineclean.com,,
Maury Eskenazi,Alternative Roofing Systems,,,,WA,,http://www.altroofing.com/,,
Maury Eskenazi,Althea’s Footwear Solutions,(425) 303-0108,1932 Broadway,,WA,,www.altheasfootwearsolutions.com,,althea@altheas.net
Maury Eskenazi,Altitude Trampoline Park,(425) 217-2558,6610 64th st N.E.,Marysville,WA,98270,altitudemarysville.com,,info@altitudemarysville.com
Stitch Mitchell,Alzheimers Association Washington State Chapter,(206) 363-5500,19031 33rd Ave W #301,Lynnwood,WA,98036,https://www.alz.org/alzwa,Healthcare / Medical,InquiryWa@alz.org
Chuck Maylin,"Amarillo Restaurant and Tavern, The",(360) 217-8484,116 E Main Monroe,Monroe,WA,98272,https://www.the-amarillo.com/,Restaurant,theamarillo@comcast.net
Chuck Maylin,American Brewing,(425) 774-1717,180 W Dayton St,Edmonds,WA,98020,https://www.americanbrewing.com/,,
Chuck Maylin,American Cancer Society Snohomish County,(425) 404-2194,"728 134th Street SW, Ste 101",Everett,WA,98204,www.cancer.org,,hannah.sladek@cancer.org
Chuck Maylin,American Cremation and Casket Alliance,(360) 651-9233,3710 168th st.B209,Arlington,WA,98223,/www.americancremation.com,,acca@americancremation.com
Chuck Maylin,American Distributing,(360) 658-3751,13618 45th Ave NE,Marysville,WA,98271,www.americandistributing.com,Energy/Utilities,
Amp Harrell,American Home Planners,,2812 Colby Avenue,Everett,WA,98201,http://americanhomeplanners.com/,,
Stitch Mitchell,American Parkinson Disease Association Northwest Chapter,,180 Nickerson Street,Seattle,WA,98109,https://www.apdaparkinson.org/community/northwest/,,
Chuck Maylin,American Patio Covers Plus,(360) 658-7281,5916 195th St. NE,Arlington,WA,98223,https://americanpatioconcepts.com,,
Chuck Maylin,American Senior Resources,,1624 Broadway,Everett,WA,98201,http://www.asrwebsite.com/Our-Mission.1.htm,,
Chuck Maylin,Amundson's Auctions,(425) 220-5325,8806 Viking Way,Stanwood,WA,,www.amundsonsauctions.com,,scott@amundsonsauctions.com
Chuck Maylin,Anacortes Brewery (Rock Fish Grill),(360) 588-1720,320 Commercial AVE,Anacortes,WA,98221,http://www.anacortesrockfish.com/,,
Chuck Maylin,Anacortes Chamber of Commerce,,,,WA,,,,
Chuck Maylin,Anderson Fireplace & Spas,,2027 Broadway,Everett,WA,98201,www.anderfire.com,Heating Air Conditioning,
Chuck Maylin,Anderson Hunter Law,,2707 Colby Avenue,Everett,WA,98201,http://www.andersonhunterlaw.com/,Attorney / Legal,
Chuck Maylin,Andrews Hay,,"22002 59th Ave NE,",Arlington,WA,98223,,,
Deanna Sigel,Angel of the Winds Arena,(425) 322-2600,2000 Hewitt Ave Suite 200,Everett,WA,98201,https://www.angelofthewindsarena.com/,,
Chuck Maylin,Angel of the Winds Casino,(360) 474-9740,3438 Stoluckquamish Lane,Arlington,WA,98223-8455,www.angelofthewinds.com,Entertainment,
Deanna Sigel,Animal Medical Center of Seattle,,17518 15th Ave NE,Shoreline,WA,98155,https://animalmedicalspecialists.com/,,
Chuck Maylin,Apex Media,,11014 27th St SE,Lake Stevens,WA,98258,apexmediaseattle.com,,
Chuck Maylin,Arch Stone Masonry,,1928 Turk Dr,Tulalip,WA,98271,https://archstonemasonry.com,,
Amp Harrell,Arena Sports,,9040 Willows Road NE,Redmond,WA,425-885-4881,http://www.arenasports.net,Sporting Events,
Chuck Maylin,Arlington Fly-In,(360) 403-3442,4700 188th Street NE,Arlington,WA,98223,www.arlingtonflyin.org,Automotive/Aerospace,barbara.tolbert@arlingtonflyin.org
Chuck Maylin,Arlington Hardware & Lumber,,215 N Olympic Ave,Arlington,WA,98223,arlingtonhardware.com,,
House,Arlington School of Massage,,"303 N Olympic Ave,",Arlington,WA,98223,https://www.asomschoolofmassage.com/,Education,asomschool@gmail.com
House,Aroo Automotive,(425) 263-9195,"2929 Rucker Ave,",Everett,WA,98201,www.arooautomotive.com,Automotive/Aerospace,dave@arooautomotive.com
Maury Eskenazi,Arrowhead Ranch,,615 Arrowhead Rd,Camano Island,WA,98282,arrowheadranchcamano.com/,,
House,At Large Brewing Company,(425) 324-0039,2730 W. Marine View Dr.,Everett,WA,98201,https://atlargebrewing.com/,,
Amp Harrell,AT&T Mobility,,"1402 Everett Mall Way",Everett,WA,98201,http://www.att.com/,,
House,"Attic, The",(360) 659-7305,4229 76th ST NE,Marysville,WA,,www.atticsecrets.com,,Kelli@atticsecrets.com
House,AXIS  Northwest Pharmacy,(425) 356-3276,6007 244th St. SW Ste A2,Mountlake Terrace,WA,98043,https://www.axispharmacynw.com/,,info@axispharmacynw.com
House,A-Z Transmission & Differentials,(360) 842-0132,405 N. West Ave.,Arlington,WA,98223,http://www.a-ztransmission.com/,,
House,Back 9 Parlor,(425) 582-9813,3105 Alderwood Mall Blvd,Lynnwood,WA,98036,back9parlor.com,,info@back9parlor.com
Stitch Mitchell,Bad Dog Distillery,,19109 63rd Avenue N.E. Suite 1 A,Arlington,WA,98223,http://www.baddogdistillery.com,,
Amp Harrell,Bales Restoration,,,,WA,,balesrestoration.com,,
House,Barron Heating Air Conditioning,,5100 Pacific Highway,Ferndale,WA,98248,www.barronheating.com,,
Amp Harrell,Barry Bunnell Construction,(360) 502-3585,15184 168th Dr SE,Monroe,WA,98272,http://www.bbimprovements.com/,Construction,barry@bbimprovements.com
Deanna Sigel,Bartells Drugs,,4727 Denver Avenue South,Seattle,WA,98134,www.bartelldrugs.com,,
Maury Eskenazi,Basic Steps Mental Health,(425) 588-8438,"12199 Village Center Pl #203,",Mukilteo,WA,98275,basicsteps.life,,info@basicssteps.life
Amp Harrell,Bay Alarm - Everett,,8115 Broadway,Everett,WA,98203,www.bayalarm.com/evergreen/,,
Amp Harrell,Bayside Marine,,1111 Craftsman Way,Everett,WA,98201,baysidemarine.com,,
Amp Harrell,Beach Watchers WSU Snohomish County Extension,,600 128th ST SE,Everett,WA,98208,www.wsusoundliving.org,,
Chuck Maylin,Beals Cunningham,(405) 478-4752,2333 East Britton Rd,Oklahoma,OK,73131,www.bealscunningham.com,Advertising/Marketing,
Deanna Sigel,BECU,,,Marysville,WA,98270,www.becu.org,,
Amp Harrell,Beef Jerky Outlet,(425) 239-8927,8825 34th Ave NE,Marysville,WA,98271,www.jerkycoast2coast.com,,tulalipbeefjerkymanagement@comcast.net
Chuck Maylin,Behars Furniture,,2105 Broadway,Everett,WA,98201,www.behars.com,Retail / Consumer Goods,getinfo@behars.com
House,Ben Bridge Jewelers,,"2901 Third Ave, suite 200",Seattle,WA,98111,,,
Stitch Mitchell,Beth West Western Stores,(360) 863-2579,16315 St Rte 9 SE,Snohomish,WA,98296,http://bethwest.net/,,
Amp Harrell,Bethany Christian Assembly,,2715 Everett Ave,Everett,WA,98201,https://bcachurch.com/,,
Stitch Mitchell,Bethany of the NW,,13700,Mill Creek,WA,98208,http://bethanynw.org,,
Deanna Sigel,Betsy Foster Real Estate,,410 N. Olympic Ave,Arlington,WA,98223,betsyfosterrealestate.com,,hurricanebetsy@msn.com
Amp Harrell,Bickford Ford,(866) 489-3673,P.O. Box 1119,Snohomish,WA,98291,www.bickford.net,,
Deanna Sigel,Big Trees Supply,,10928 Springhetti Rd.,Snohomish,WA,98296,https://bigtreesupply.com/,,
House,Bio-Monte,(425) 244-9991,103 E 3rd St #110,Arlington,WA,,bio-monte.com,,info@bio-monte.com
Deanna Sigel,Biondi Media,(206) 384-1780,11828 Marine View Dr,Edmonds,WA,98026,Biondimedia.com,,
House,Birch Bay Waterslides,(360) 371-7500,4874 Birch Bay Lynden Road,Blaine,WA,98230,birchbaywaterslides.net,,
Deanna Sigel,Bits,(425) 595-6914,"11601 Harbour Pointe Blvd,",Mukilteo,WA,98275,https://www.facebook.com/craftcocktailsandeatery/,,
Amp Harrell,BizDiversity,(206) 489-2640,6512 NE 181st,Kenmore,WA,98028,bizdiversity.net,,info@bizdiversity.net
Chuck Maylin,BizX,(800) 939-2499,155 108th Av NE,Bellevue,WA,98006,www.bizx.com,Barter,help@bizx.com
Amp Harrell,Blade Chevrolet & RVs,,1100 Freeway Dr,Mount Vernon,WA,98273,www.bladechevy.com,,
Amp Harrell,Bloodworks Northwest,,,,WA,,,,
House,Bloom Cannabis,(425) 405-6700,11311 Evergreen Way,Everett,WA,,www.bloomcannabis.com,,info@infinatebloom.com
Maury Eskenazi,Blossom Solar,(425) 610-7067,1706 Lombard Avenue,Everett,WA,98201,blossomsolar.com,,info@blossomsolar.com
Maury Eskenazi,Blue Fox Drive In,,?1403 Monroe Landing Road,Oak Harbor,WA,98277,,,
Amp Harrell,Blue Stilly Coffee Roasters,,,,WA,,BlueStilly.com,,
Maury Eskenazi,BMH Marketing,(425) 775-6856,630 Birch Street,Edmonds,WA,98020,bmhmarketing.com,,bretthyde@bmhmarketing.com
House,Boats Afloat,,,,,,,,
Maury Eskenazi,Boatyard Inn,(360) 221-5120,200 Wharf St.,Langley,WA,,boatyardinn.com,,boatyard@whidbey.com
Amp Harrell,Bob's Burgers and Brew,,9394 Old Hwy 99 North Road,Burlington,WA,98233-6815,bobsburgersandbrew.com,,
Amp Harrell,Bob's Heating and Air Conditioning,,,,WA,,http://www.bobsheating.com/,,
Stitch Mitchell,Boeing Future of Flight,(800) 464-1476,8415 Paine Field Blvd.,Mukilteo,WA,98275,www.futureofflight.org,Automotive/Aerospace,futureofflightinfo@boeing.com
Stitch Mitchell,Boeing Machinists Union - IAM District 751,,9125 15th Pl. S.,Seattle,WA,98108,www.iam751.org,,
Deanna Sigel,"Bony Pony, The",(360) 424-3500,2415 Old 99 S Rd,Mount Vernon,WA,98273,www.bonypony.com,,info@bonypony.com
House,Boot Barn,,,Tulalip,WA,,,,
Amp Harrell,Bothell Chiropractic,(425) 485-1413,10024 Main Street,Bothell,WA,98011,https://bothellchiropractic.com/,Healthcare / Medical,info@bothellchiropractic.com
Amp Harrell,Bothell Kenmore Chamber of Commerce,,PO Box 1203,Bothell,WA,98041,https://bothellkenmorechamber.org/,,
House,"Bothell, City of",,18415 101st Avenue NE,Bothell,WA,98011,,,
House,Bourke Travel,(425) 787-1115,16120 Cascadian Way,Bothell,WA,98201,bourketravel.com,,kim@bourketravel.com
Chuck Maylin,Boys & Girls Club of Snohomish County,(425) 258-2436,8223 Broadway,Everett,WA,98203,www.bgcsc.org,,
Stitch Mitchell,Boys and Girls Club of Snohomish County,,,,WA,,bgcsc.org,,
House,Bradley Electric LLC,,,,,,,,
Amp Harrell,Breeze Free Windows & Doors,,6023 188th St SE,Snohomish,WA,98296,http://www.breezefreewindow.com/,,
House,Britt Sports Cards,,332 Olympic Ave,Arlington,WA,98223,http://brittsportcards.com/about-britt-sport-cards/,,
Chuck Maylin,Broadcast Matrix,,,Everett,WA,,www.broadcastmatrix.com,,
House,Buck's American Cafe,,2901 Hewitt Ave,Everett,WA,98201,www.bucksamericancafe.com,,james@bucksamericancafe.com
House,Bud Hut,(425) 353-1449,1123 State Route 532,Camano Island,WA,98282,www.thebudhut.net,,info@budhut.net
Deanna Sigel,Budget Blinds,,9915 7th Ave SE,Everett,WA,98208,https://budgetblinds.com/millcreek/,,
Deanna Sigel,Budget Blinds of Snohomish County,,9915 7th Ave. S.E.,Everett,WA,98208,snokinginteriors.com,,
Amp Harrell,Budget Granite and Stone,(425) 359-2002,5629 208th St SW,Lynnwood,WA,98036,https://budgetgraniteandstone.com/,Manufacturing,
House,Buds Garage,,3015 Everett Ave,Everett,WA,98201,http://www.budsgarage.net/,,
Amp Harrell,Buffalo Wild Wings,,1402 SE Everett Mall Way,Everett,WA,98208,www.buffalowildwings.com,,
House,Burlington Store 813,(425) 267-2417,1402 E Everett Mall Way,Everett,WA,98208,,Retail/Consumer Goods,
Chuck Maylin,Buzz Inn Steakhouse,,18960 SR 2,Monroe,WA,98272,www.buzzinnsteakhouse.com,,
Stitch Mitchell,Cabela's Store #437,(360) 474-4880,9810 Quil Ceda Blvd,Tulalip,WA,98271,www.cabelas.com,Retail/Consumer Goods,
Amp Harrell,Cactus Moon Saloon,,717 128th Ave S.W.,Everett,WA,98204,,,
Deanna Sigel,Caliber Home Loans,,"100 219th Street SW, Suite 545",Mount Lake Terrace,WA,,https://www.caliberhomeloans.com/,,
Amp Harrell,Camano Animal Shelter Association,,198 Can Ku Rd,Stanwood,WA,98292,camanoanimalshelter.org,,casa@camanoanimalshelter.org
Deanna Sigel,Camano Island Coffee Roasters,,848 N Sunrise Blvd Building B,Camano Island,WA,98282,camanoislandcoffee.com,,
Maury Eskenazi,Camano Island Day Spa,,848 North Sunrise Blvd,Camano Island,WA,,camanoislanddayspa.com,,info@camanoislanddayspa.com
Deanna Sigel,Camerons Weekend Moving,,,,WA,,https://weekendmoving.wixsite.com/mysite,,
House,Camp Bow Wow,(360) 862-3040,16642 146th St SE,Monroe,WA,98272,campbowwow/monroe.com,Pets/Care/Stores,info@campbowwow/monroe.com
Maury Eskenazi,Camp Ruff House,(360) 926-2218,3923 88th Street NE Suite D,Marysville,WA,98270,www.campruff.com,,playruff@campruff.com
Amp Harrell,Campbell Nissan Edmonds,,24325 Hwy 99,Edmonds,WA,98046,https://www.campbellnissanofedmonds.com/,,
Amp Harrell,Campbell Nissan Everett,(800) 776-5337,10500 Hwy 99 South,Everett,WA,98204,https://www.campbellnissanofeverett.com/,Automotive/Aerospace,
Stitch Mitchell,Campfire Chef,,,,WA,,https://campfirechefcompetition.com/?fbclid=IwAR0dAIJnHm8FT0RkjZcQaAblsqQZh1CSWCSsvaklVkC1wHmN2Qr4jy0SGbU,,
House,CannaCon,(425) 791-4467,6126 Bothell Way NE,Kenmore,WA,98028,https://cannacon.org,,
Amp Harrell,Care Partners / The Cottages,,,Marysville,WA,98270,http://carepartnersliving.com/cottages-marysville-retirement-community/senior-living/,,
House,Carleton Farms,(425) 334-2297,630 Sunnyside Blvd SE,Lake Stevens,WA,98258,www.carletonfarm.com,,thefarmer@carletonfarm.com
Stitch Mitchell,Carol Merry Marketing,,"1100 Dexter Ave N",Seattle,WA,98109,carolmerrymarketingservices.com,,
Stitch Mitchell,Carolyn Douglas Communications,,P.O. Box 1054,Edmonds,WA,98020,carolyndouglas.com,,
Maury Eskenazi,Carpet Liquidators,(425) 212-3178,"725 SE Everett Mall Way, Everett, WA 98208",Everett,WA,98201,https://www.carpetliquidators.com/,,laurie@admarkservices.com
Stitch Mitchell,Carsten Cleaning Carpet and Upholstery,,6309 W. Beech St.,Everett,WA,98203,carstencleaning.com,,
Amp Harrell,Carter Construction Inc.,(425) 238-7066,401 Rockefeller Ave,Everett,WA,98201,https://www.mikecarterconstruction.com/,Construction,
Amp Harrell,Cascade Landworks,,,Monroe,WA,98272,https://www.cascadelandworks.com/,,
House,Cascade Marine Service,,2925 West Marine View Drive,Everett,WA,98201,boatrepaireverett.com,,
Amp Harrell,Cascadia College,,18345 Campus Way N.E.,Bothell,WA,98011,http://www.cascadia.edu,,
House,Cat and Company,,POB  2028,Anacortes,WA,98221,,,
Deanna Sigel,Cedar Grove,,,,,,,,
Deanna Sigel,Cedar Grove Compost,(877) 764-5748,3260 36th Pl NE,Everett,WA,,cedar-grove.com,Gardening / Landscaping,
Amp Harrell,Celtic Arts Foundation,,1124 Cleveland Avenue,Mt Vernon,WA,98273,https://celticarts.org,,
House,Center Public House,,115 Ave A,Snohomish,WA,98290,https://centerpublichouse.com/,Restaurant,
Amp Harrell,"Chermak Construction, Inc.",(425) 776-1367,655 Edmonds Way,Edmonds,WA,98020,https://www.chermak.com/,Construction,info@chermak.com
House,Chevrolet of Everett,,7300 Evergreen Way,Everett,WA,,chevroletofeverett.com,,
House,ChildStrive,,14 E Casino Rd,Everett,WA,98208,www.childstrive.org,,
Chuck Maylin,Chinook Lumber,(360) 668-8800,21015 St Rte 9 NE,Arlington,WA,98223,http://www.chinooklumber.com/,,
Deanna Sigel,Chuck Olson Chevrolet Kia,,17037 Aurora Ave N,Shoreline,WA,98133,www.chuckolsonchev.com,,
Deanna Sigel,Citrine Health,(425) 259-9899,2490 W. Marine View Dr,Everett,WA,98201,www.citrinehealth.org,,
Deanna Sigel,City of Mukilteo,,11930 Cyrus Way,Mukilteo,WA,98275,https://mukilteowa.gov,,
Amp Harrell,Clean and Simple Cleaning,(425) 673-4733,18908 Highway 99,Lynnwood,WA,98036,cleanandsimplecleaning.com/,Services / Consulting,info@cleanandsimplecleaning.com
Deanna Sigel,Clean Crawls,,3707 124th St NE Bldg A-1,Marysville,WA,98271,cleancrawls.com,,
Amp Harrell,Clearview Glass Company,,4317 Rucker Ave.,Everett,WA,98203,http://clearviewglass.com,,
Stitch Mitchell,Clearview Nursery and Stone,,16918 State Route 9 SE,Snohomish,WA,98296,clearviewnursery.net,,
Maury Eskenazi,Clearview RV,,"17104 Hwy. 9 SE, Snohomish",Clearview,WA,,http://www.clearviewrv.com/,,
Maury Eskenazi,Clyde Revord Motors (Buick GMC),(425) 353-1170,7900 Evergreen Way,Everett,WA,98203,http://www.revord.com/,,
Amp Harrell,CM Heating and Air Conditiong,,1415 Broadway,Everett,WA,98201,cmheating.com,,
Deanna Sigel,CNI Locates,,,,,,,,
House,Coast Real Estate Services,(800) 339-3634,2829 Rucker Ave,,WA,,https://www.coastmgt.com,,tomhoban@coastmgt.com
Chuck Maylin,Coastal Community Bank,(425) 257-9000,PO Box 12220,Everett,WA,98206,https://www.coastalbank.com/about/contact-us.html,,customerservice@coastalbank.com
Amp Harrell,Coastal Farm and Ranch,,2021 Market Street,Mount Vernon,WA,98273,coastalfarm.com,,
Chuck Maylin,Cocoon House,,2929 Pine Street,Everett,WA,98201,www.cocoonhouse.org,,
Stitch Mitchell,Colby Diner,(425) 252-7419,2720 Colby,Everett,WA,,https://www.facebook.com/colbydiner/,,
House,Cole Industrial Inc.,(800) 627-2653,5924 203rd st,Lynnwood,WA,98036,http://coleindust.com/,,
Amp Harrell,Collector's Choice Restaurant,,215 Cypress Ave,Snohomish,WA,98290,http://www.ccrsnohomish.com/,,
House,Columbia Bank,(425) 303-1800,1810 Everett Ave.,Everett,WA,98203,,,
House,Columbia Distributing - Everett,(425) 235-2689,6201 Associated Blvd,Everett,WA,98203,http://www.coldist.com/,Beverages,
House,Community Health Care,,,,,,,,
House,Community Health Centers of Snohomish County,(425) 640-5544,"8609 Evergreen Way,",Everett,WA,98208,http://www.chcsno.org/,,
Amp Harrell,Community Transit,,2300 Cash Park Road,Everett,WA,98037,http://www.commtrans.org/,,
Deanna Sigel,Completely Floored,(425) 276-7929,3302 Smith Ave,Everett,WA,98201,completelyfloored.com,Retail / Consumer Goods,
Amp Harrell,Conaway Motors Inc.,,5201 Colby Avenue,Everett,WA,,http://conawaymotors.com/,,
Deanna Sigel,Consumer Cellular,,"12447 SW 69th Ave, 23",Portland,OR,97223,https://www.consumercellular.com/,,
Deanna Sigel,CO-OP Supply,(360) 659-1236,8323 State Avenue,Marysville,WA,98270,http://www.co-opsupplyinc.com,Farm/Agriculture,
House,Copacino Fujikado,(206) 467-6610,1425 4th Avenue,Seattle,WA,98101,www.copacino.com,Advertising/Marketing,
Amp Harrell,Corstone Contractors LLC,(360) 862-8316,1910 Bickford Ave,Snohomish,WA,98290,corstonellc.com,Construction,
House,Cort Party Rental,(425) 953-1444,6101 Associated Blvd,Everett,WA,98203,cortpartyrental.com,,
Maury Eskenazi,Costless Furniture,,9315 State Avenue,Marysville,WA,98270,https://www.costlesswarehouse.com/,,
Amp Harrell,Country Financial of Lynnwood,,4630 200th St SW,Lynnwood,WA,98036,https://representatives.countryfinancial.com/courtney.balza/,,
House,Courtyard by Marriott,,3003 Colby,Everett,WA,98201,,,
Maury Eskenazi,CPI Plumbing and Heating,(360) 428-5636,1900 Railroad Ave,Mt Vernon,WA,98273,http://www.cpiplumbing.com,,info@cpiplumbing.com
House,Creative Bus Sales,,"11601 Cyrus Way #101,",Mukilteo,WA,98275,http://www.creativebussales.com/,,
Deanna Sigel,Creative Media Alliance,,81 Columbia Street,Seattle,WA,98104,creativemediaalliance.com,,garyhurley@creativemediaalliance.com
Maury Eskenazi,Creative Workspace,(425) 582-2340,16825 48th ave west,Lynnwood,WA,98037,creative-workspace.com,,lynnwood@creative-workspace.com
House,Crossroad Sign,,16406 7th Pl W,Lynnwood,WA,98037,www.crossroadsign.com,,
Maury Eskenazi,Crucible Brewing,(425) 374-7293,909 SE Everett Mall Way Suite D440,Everett,WA,98208,https://dev2.cruciblebrewing.com/,,info@cruciblebrewing.com
Amp Harrell,Custom Touch Granite,(206) 571-4199,2626 119th ST SW,Everett,WA,98204,http://customtouchgranite.com/,Construction,travis@customtouchgranite.com
Amp Harrell,Customer Success by Design,,,,WA,,csbydesign.com,,
House,Dakota Drywall,(425) 931-8283,,Everett,WA,,www.dakotadrywallnw.com,,dakotadrywallnw@frontier.com
House,Dale Wagner Law,,9727 271st St Nw,Stanwood,WA,98292,,,
Maury Eskenazi,"Dale Wagner,TheLaw Offices of",(360) 629-5276,9727 271st St Nw,Stanwood,WA,98292,dalewagnerlaw.com,,info@dalewagnerlaw.com
House,Dances With Foods,,,,,,www.DanceswithFoods.com,Services/Consulting,celine@danceswithfoods.com
Stitch Mitchell,Darrington Bluegrass Festival,,PO Box -519,Darrington,WA,98241,darringtonbluegrass.com,,
House,Darrington Rodeo,,,Darrington,WA,,,,
Deanna Sigel,Darrows Carpets,,27028 99th Ave NW,Stanwood,WA,,https://darrowscarpet.com/,,
Deanna Sigel,Day and Nite Plumbing and Heating,(425) 775-6464,16614 13th Avenue West,Lynnwood,WA,98037,https://dayandnite.net/,,
House,Dealership Glass,,12531 30th Ave NE,Seattle,WA,98125,,,
Deanna Sigel,Dentists of Mukilteo,(425) 374-1136,,Mukilteo,WA,,,,
Chuck Maylin,Despi Delite Bakery,,3715 Broadway,Everett,WA,98201,http://despidelitebakery.com/,,
House,Devito/Verdi,,100 5th ave,New York,NY,10011,,,
Maury Eskenazi,"DH - Public relations, advertising,",(509) 444-2350,315 West Riverside,Spokane,WA,99201,https://www.wearedh.com/,,emilyd@wearedh.com
House,Diedrich Espresso,(425) 339-2213,1532 Broadway,Everett,WA,98201,http://www.diedrichespresso.com/,,
Amp Harrell,Dino Transfers,(425) 488-9600,10038 Main Street,Bothell,WA,98011,dinotransfer.com,Communication,artwork@dinotransfer.com
House,Dixon Schwabl,,,,WA,,,,
House,DNA,,1301 5th Av,Seattle,WA,98101,www.dnaseattle.com,,
Amp Harrell,Domestic Violence Services of Snohomish County,,P.O. Box 7,Everett,WA,98206-0007,http://dvs-snoco.org,,
House,Done Right Plumbing,(425) 245-7552,20410 S Danvers Rd,Lynnwood,WA,98036,https://donerightplumber.com/,,DoneRight001@gmail.com
Deanna Sigel,Doodlebug Sportz,,"3813 Rucker Ave., Suite 2",Everett,WA,98201,www.doodlebugsportz.com,,
Maury Eskenazi,Double Z Media,,,,WA,,,,
House,Downtown Arlington Business Assn,(360) 631-6076,"526 N West Avenue,",Arlington,WA,98223,arlingtonwa.org,,cristyb19@gmail.com
Deanna Sigel,Downtown Everett Association,,POB 748,Everett,WA,98206,www.downtowneverettwa.org,,
House,Dreadnought Brewing,(360) 863-2479,"16726 146th St SE, Ste 153",Monroe,WA,98272,http://dreadnoughtbrewing.com,,
House,Dump It Junk Removal,(877) 386-7695,16212 Bothell-Everett HWY,Mill Creek,WA,98012,https://www.dump-it.com/,,info@dump-it.com
House,Dunlap Industrial Hardware,(425) 339-2666,1028 West Marine Dr.,Everett,WA,98201,http://www.dunlapindustrial.com/,,
Amp Harrell,Dunn Lumber,,"3801 Latona Ave NE",Seattle,WA,98145,https://www.dunnlumber.com/,,
House,Dusty Cellars Winery,(360) 387-2729,529 Michael Way,Camano Island,WA,98282,dustycellars.com,,
Deanna Sigel,Dwayne Lane Auto Centers,(888) 444-5263,10515 Evergreen Way,Everett,WA,98204,www.dwaynelane.com,,info@dwaynelane.com
Stitch Mitchell,dwell Mortage,,2707 Colby #1212,Everett,WA,98201,dwellmtg.com,,
House,Dynamic Computing,(206) 284-6200,123 Northwest 36th St,Seattle,WA,98107,www.dyncomputing.com,Computers/High Tech,hello@dyncomputing.com
Amp Harrell,E and J Build,(425) 381-3201,,,,,https://www.eandjbuild.com/,Construction,
House,Eclectik Salon,,2707 Colby AVE Suite D,Everett,WA,98201,eclectiksalon.com,,
Stitch Mitchell,Economic Alliance of Snohomish County,,808 134th Street SW #101,Everett,WA,98204,economicalliancesc.org,,
Stitch Mitchell,Economic Alliance of Snohomish County,(425) 743-4567,808 134th Street SW #101,Everett,WA,98204,economicalliancesc.org,,nfo@economicalliancesc.org
Stitch Mitchell,Economic Alliance of Snohomish County,,808 134th Street SW #101,Everett,WA,98204,economicalliancesc.org,,
House,Eden Health,(360) 599-7179,"316 E. McLeod Rd, Ste. 101",Bellingham,WA,98226,www.eden-homehealth.com/mount-vernon,Healthcare/Medical,
Stitch Mitchell,Edmonds Center for the Arts,(425) 275-4485,410 Fourth Avenue N,Edmonds,WA,98020,edmondscenterforthearts.org,,boxoffice@ec4arts.org
Chuck Maylin,Edmonds Chamber of Commerce,(425) 670-1496,121 5th Ave N,Edmonds,WA,98020,http://www.edmondswa.com/,,business@edmondswa.com
Stitch Mitchell,Edmonds Community College,,20000 68th Ave W,Lynnwood,WA,98036-5999,www.edcc.edu,,
Stitch Mitchell,Edmonds School District Foundation,(425) 431-7260,20420 68th Avenue West,Lynnwood,WA,98036-7400,foundationesd.org,,Deb@foundationesd.org
Stitch Mitchell,Edmonds Yacht Club,(425) 778-5499,326 Admiral Way,Edmonds,WA,98020,edmondsyachtclub.com,,rentals@edmondsyachtclub.com
Maury Eskenazi,Edward Jones Investments,,437 N Olympic Ave Ste A,Arlington,WA,98223,,,
Deanna Sigel,Einar Johansen Insulation and Glass,,922 N 128th St,Seattle,WA,98133,ejseattle.com,,
House,El Paraiso Mexican Grill,,2801 Colby Avenue,Everett,WA,98201,http://www.elparaisomexicangrill.com/,,
Deanna Sigel,"Elder Law Offices Myers, Neubeck & Hulford",(360) 647-8846,1511 26th St,Everett,WA,98201,www.elderlaw-nw.com/contact-us/,Legal,
Chuck Maylin,Electronic Business Machines,(425) 742-2244,802 134 ST SW,Everett,WA,98204,www.ebmco.com,,
Amp Harrell,Element 7,,,,WA,,,,
Maury Eskenazi,Elemental Cider,(360) 294-8518,6015 180th St. NE #101,"Arlington,",WA,98223,https://www.elementalhardcider.com/,,info@elementalhardcider.com
Deanna Sigel,Elite Roofing and Remodel,,16510 St Rte 9 SE Ste #D,Snohomish,WA,98296,https://www.eliteroofingnw.com/,,
House,Ellen Hiatt Consulting,,,Darrington,WA,,www.ellenhiatt.com,,
Stitch Mitchell,Ellensburg Rodeo,(509) 607-4721,609 North Main,Ellensburg,WA,98926,http://ellensburgrodeo.com/,,
Maury Eskenazi,Emerald Downs,(253) 288-7000,,Everett,WA,,emeralddowns.com,,
Amp Harrell,Energy Exteriors NW,,17905 Bothell Everett Hwy,Bothell,WA,98012,https://www.energyexteriorsnw.com/,Retail / Consumer Goods,info@EnergyExteriorsNW.com
House,Epic Ford,,5200 Evergreen Way,Everett,WA,98023,http://www.epicfordnw.com/,Automotive / Aerospace,
Stitch Mitchell,Epulo Bistro,,190 Sunset,Edmonds,WA,98020,epulobistro.com,Restaurant,info@epulobistro.com
Deanna Sigel,Erickson Furniture Co,(425) 259-3876,2015 Broadway,Everett,WA,98201,www.ericksonfurniture.com,,
Amp Harrell,ESC Mattress Center,(425) 512-0017,10121 Evergreen Way Suite 30,Everett,WA,98204,http://www.escmattresscenter.com/,,
Deanna Sigel,Ethan home Repair and Remodeling LLC,,"313 Heather Rd,","Everett, WA",WA,98203,https://www.dandb.com/businessdirectory/ethanhomerepairandremodelingllc-everett-wa-27216164.html,,
Chuck Maylin,Everett AquaSox,(425) 252-5100,3802 Broadway,Everett,WA,98201,www.aquasox.com,,
Maury Eskenazi,Everett Bone and Joint,(425) 339-2433,1100 Pacific Ave,Everett,WA,,www.ebjproliancesurgeons.com,,info@ebjproliancesurgeons.com
House,Everett Calvary Lutheran Church,(425) 252-6775,1711 26th St,Everett,WA,98201,http://www.everettcalvarylutheranchurch.com/,,
Amp Harrell,Everett Clinic,,3901 Hoyt Ave.,Everett,WA,98201,https://www.everettclinic.com/,,
House,Everett Community College,(425) 388-9100,2000 Tower St.,Everett,WA,98201,www.everettcc.edu,,
Amp Harrell,Everett Farmer's Market,(425) 422-5656,PO Box 120,Everett,WA,98201,http://everettfarmersmarket.com/,,
Maury Eskenazi,Everett Film Festival,(425) 210-2939,3616 Colby Ave #10,Everett,WA,98201,http://everettfilmfest.org/,,
House,Everett Fire Department,,2930 Wetmore Av,Everett,WA,98201,,,
Maury Eskenazi,Everett Handyman Service,,8332 9th ST NE,Lake Stevens,WA,,,,
Maury Eskenazi,Everett Mall,,1402 SE Everett Mall Way,Everett,WA,98208,www.shopeverettmall.com,,
Stitch Mitchell,Everett Music Initiative,,"3608 Norton Avenue",98201,WA,,http://www.everettmusicinitiative.com/,,
House,Everett Music Initiative,,3608 Norton Avenue,98201,WA,,http://www.everettmusicinitiative.com/,,everettmusicinitiative@gmail.com
House,Everett Optometry Clinic,,3700 Colby Avenue,Everett,WA,98201,http://www.everettoptometry.com/,,
House,Everett Philharmonic,,2415 Colby Ave,Everett,WA,98201,http://www.everettphil.org/,,
House,Everett Rowing Association,(425) 345-5138,P.O. Box 1774,Everett,WA,98206,everettrowing.com,,director@everettrowing.com
House,Everett Safe and Lock,(425) 258-1422,5108 Evergreen Way,Everett,WA,98203,https://everettsafeandlock.com/,,info@everettsafeandlock.com
Stitch Mitchell,Everett Sausage Festival,,2619 Cedar Avenue,Everett,WA,98201,www.everettsausagefest.com,,
Chuck Maylin,Everett Silvertips Hockey Club,(425) 252-5100,"2000 Hewitt Avenue, Suite 100",Everett,WA,98201,www.everettsilvertips.com,,info@everettsilvertips.com
Maury Eskenazi,Everett Skate Deck,,9700 19th Ave SE,"Everett,",WA,98208,http://www.everettskatedeck.com/,,
Deanna Sigel,Everett Station,(425) 257-7777,"3201 Smith Avenue",Everett,WA,98201,http://everetttransit.org/148/Everett-Station,,ETmail@everettwa.gov
